Country,GAUL_Admin1,GAUL_Admin2,Full_Name,LatLong_Source,YeStart,YeEnd,An.gambiae_complex,An.gambiae.ss,SS.M.Form..An.colluzzi.or.Mopti.forms.,SS.S.Form..savanah.or.Bamako.forms.,An.arabiensis,An..melas,An..merus,An.bwambae,An.funestus..s.l,An.funestus.s.s...specified.,An.rivulorum,An.leesoni,An.parensis,An.vaneedeni,An.nili.s.l,An.moucheti.s.l,An.pharoensis,An.hancocki,An.mascarensis,An.marshalli,An.squamous,An.wellcomei,An.rufipes,An.coustani.s.l,An.ziemanni,An.paludis,Adults.Larvae,Sampling_Methods,Species_Identification,Other.sib.species.names,Other.Anopheline.species,Source_Title,LongitudeF,Longitude,Latitude,elevation,elev_units
Swaziland,Lubombo,Nkilongo,Big Bend,Geonames,1960,1987,Y,Y,,,Y,,Y,,,,,,,,,,,,,,,,,,,,"Adults, Larvae","Exit traps, OS, ABC, IR, PSC, LC","M, Cross-mating, Enzyme electrophoresis, CBS",,,"Davidson G (1966). Distribution Records of Member Species of the Anopheles Gambiae Complex (identifications Up to May 1966). WHO/Mal/66.570; Paterson HE & Paterson JS (1964). Records of the breeding of 'saltwater anopheles gambiae' at inland localities in Southern Africa. Nature, 201: 524-525; Franco de ALT, Roche SM, Ariaratnam V, Joia HS, Chinien V (1984). Malaria situation in Swaziland. Report on an evaluation mission November-December 1984. WHO unpublished document; Coetzee M (1989). Comparative morphology and multivariate analysis for the discrimination of four members of the Anopheles gambiae group in southern Africa. Mosquito Systematics, 21: 100-116",31,31.9333,-26.8167,117,meters
Mozambique,Maputo,Manhica,Palmeira,Google Earth,1963,1983,Y,Y,,,Y,,,,,,,,,,,,,,,,,,,,,,Adults,IR,"M, Cross-mating, CBS",,,"Davidson G (1966). Distribution Records of Member Species of the Anopheles Gambiae Complex (identifications Up to May 1966). WHO/Mal/66.570; Schwalbach JFL & de la Maza MCR (1985). A Malária em Moçambique [1937–1973]. Maputo, Repúblic Popular de Moçambique, Ministério da Saúde, Instituto Nacional de Saúde, pp. 76; Petrarca V, Carrara GC, Di Deco MA, Petrangeli G (1984). Osservazioni citogenetiche e biometriche sui membri del complesso Anopheles gambiae in Mozambico. Parassitologia, 26: 247-259",32,32.8705,-25.2638,20,meters
Mozambique,Gaza,Bilene,Magul,Google Earth,1960,1970,Y,Y,,,Y,,Y,,Y,,,,,,,,,,,,,,,,,,Adults,HBC,"M, Cross-mating",,An quadriannulatus,"Davidson G (1966). Distribution Records of Member Species of the Anopheles Gambiae Complex (identifications Up to May 1966). WHO/Mal/66.570; Schwalbach JFL & de la Maza MCR (1985). A Malária em Moçambique [1937–1973]. Maputo, Repúblic Popular de Moçambique, Ministério da Saúde, Instituto Nacional de Saúde, pp. 76",33,33.0311,-25.0584,54,meters
Madagascar,Androy,Tsiombe,Ankiliefatra,GPS,2003,2003,Y,Y,,,Y,,Y,,,,,,,,,,,,,,,,,,,,"Adults, Larvae","HLC, IR, CDC light trap, LC","M, PCR",,,"Leong Pock Tsy JM, Duchemin JM, Marrama L, Rabarison P, Le Goff G, Rajaonarivelo V, Robert V (2003). Distribution of the species of the Anopheles gambiae complex and first evidence of Anopheles merus as a malaria vector in Madagascar. Malaria Journal, 2: 33. ",45,45.5,-25.32,68,meters
Madagascar,Anosy,Taolanaro,Esana,Combination,1994,2000,Y,Y,,,Y,,Y,,Y,,,,,,,,,,Y,,,,,,,,Adults,"HLC, PSC, Light traps","M, PCR",,,"Marrama L, Jambou R, Rakotoarivony I, Leong Pock Tsi JM, Duchemin JB, Laventure S, Mouchet J, Roux J (2004). Malaria transmission in Southern Madagascar: influence of the enviroment and hydro-agricultural works in sub-arid and humid regions Part 1. Entomological investigations. Acta Tropica, 89: 193-203; Marrama L, Laventure S, Rabarison P, Roux J (1999). Anopheles mascarensis (De Meillon, 1947): vecteur principal du paludism dans la region de Fort-Dauphin (Sud-est de Madagascar). Entomologie Medical, Manuscript No2018; Leong Pock Tsy JM, Duchemin JM, Marrama L, Rabarison P, Le Goff G, Rajaonarivelo V, Robert V (2003). Distribution of the species of the Anopheles gambiae complex and first evidence of Anopheles merus as a malaria vector in Madagascar. Malaria Journal, 2: 33",46,46.987,-25.02,18,meters
Angola,Namibe,Namibe,Bairro Aida,Google Earth,2001,2002,Y,Y,Y,,Y,,,,,,,,,,,,,,,,,,,,,,Adults,"IR, Bednet traps, PSC","M, PCR",,,"Calzetta M, Santolamazza F, Carrara GC, Cani PJ, Fortes F, Di Deco MA, della Torre A, Petrarca V (2008). Distribution and chromosomal characterization of the Anopheles gambiae complex in Angola. American Journal of Tropical Medicine & Hygiene, 78: 169-175",12,12.194,-15.1764,63,meters
Angola,Cuando Cubango,Cuangar,Mayara,Encarta,1988,1988,Y,Y,,,Y,,,,Y,,,,,,,,,,,,,,,,,,Adults,PSC,"M, Enzyme electrophoresis",,,Hansford CJ (1988). Letter from Director NITD and unpublished data on vector blood meals along Kavano/Angola River borders. Dated 12th November 1988,18,18.649,-17.65,1101,meters
Angola,Cuando Cubango,Dirico,Korokoko,Combination,1988,1988,Y,Y,,,Y,,,,Y,,,,,,,,,,,,,,,,,,Adults,PSC,"M, Enzyme electrophoresis",,,Hansford CJ (1988). Letter from Director NITD and unpublished data on vector blood meals along Kavano/Angola River borders. Dated 12th November 1988,20,20.9274,-17.9714,1039,meters
Angola,Cuando Cubango,Dirico,Tjova,Encarta,1988,1988,Y,Y,,,Y,,,,Y,,,,,,,,,,,,,,,,,,Adults,PSC,"M, Enzyme electrophoresis",,,Hansford CJ (1988). Letter from Director NITD and unpublished data on vector blood meals along Kavano/Angola River borders. Dated 12th November 1988,21,21.033,-17.95,1043,meters
Zambia,Western,Senanga,Katula,GPS,2011,2013,Y,Y,,,,,,,Y,Y,,,,,,,,,,,,,,,,,Adults,IR,"M, Cross-mating",,,"Thomsen EK, Strode C, Hemmings K, Hughes AJ, Chanda E, Musapa M, Kamuliwo M, Phiri FN, Muzia L, Chanda J, Kandyata A, Chirwa B, Poer K, Hemingway J, Wondji CS, Ranson H, Coleman M. Underpinning sustainable vector control through informed insecticide resistance management. PLoS One, 9: e99822; Edward Thomsen (2014). personal communication",23,23.6594,-16.6367,1020,meters
Zimbabwe,Matabeleland North,Hwange,Matetsi River mouth,Google Earth,1975,1975,Y,Y,,,Y,,Y,,,,,,,,,,,,,,,,,,,,Adults,PSC,"M, CBS",,An quadriannulatus,"Coetzee M, Hunt RH, Braak LEO, Davidson G (1993). Distribution of mosquitoes belonging to the Anopheles gambiae complex, including malaria vectors, south of latitude 15°S. South African Journal of Science, 89: 227-231",25,25.5025,-17.8672,926,meters
Zambia,Southern,Choma,Macha,Encarta,2004,2015,Y,Y,,,Y,,,,Y,Y,Y,Y,Y,,,,,,,,Y,,Y,Y,,,Adults,"PSC, CDC Light traps, IR","M, DNA, PCR",An rivulorum-like,"An longipalpis type C, An pretoriensis, An quadriannulatus","Lee Y, Seifert SN, Fornadel CM, Norris DE, Lanzaro GC (2012). Single-nucleotide polymorphisms for high-throughput genotyping of Anopheles arabiensis in East and southern Africa. Journal of Medical Entomology, 49: 307-315; Fornadel CM & Norris DE (2008). Increased endophily by the malaria vector Anopheles arabiensis in southern Zambia and identification of digested blood meals. American Journal of Tropical Medicine & Hygiene, 79: 876-880; Kent RJ & Norris DE (2005). Identification of mammalian blood meals in mosquitoes by a multiplexed polymerase chain reaction targeting cytochrome B. American Journal of Tropical Medicine & Hygiene, 73: 336-342; Kent RJ, Mharakurwa S, Norris DE (2007). Spatial and temporal genetic structure of Anopheles arabiensis in Southern Zambia over consecutive wet and drought years. American Journal of Tropical Medicine & Hygiene, 77: 316-323; Koekemoer LL, Misiani EA, Hunt RH, Kent RJ, Norris DE, Coetzee M (2009). Cryptic species within Anopheles longipalpis from southern Africa and phylogenetic comparison with members of the An. funestus group. Bulletin of Entomological Research, 99: 41-49; Choi KS, Coetzee M, Koekemoer LL (2010). Simultaneous identification of the Anopheles funestus group and Anopheles longipalpis type C by PCR-RFLP. Malaria Journal, 9: 316; Stevenson J, Simubali L, Hamapumbu H, Norris DE (2014). Vector bionomics in an area targeted for malaria elimination southern Zambia. 1st Pan African Mosquito Control Association Conference “Challenges of vector control in the malaria eradication era” Abstract 01: 61; Simubali L, Stevenson J, Hamapumbu H, Norris DE (2014). The Importance of molecular methods for anopheline species determination in an area targeted for malaria elimination. 1st Pan African Mosquito Control Association Conference “Challenges of vector control in the malaria eradication era” Abstract 46: 107; Das S, Henning TC, Simubali L, Hamapumbu H, Nzira L, Mamini E, Makuwaza A, Muleba M, Norris DE, Stevenson JC (2015). Underestimation of foraging behaviour by standard field methods in malaria vector mosquitoes in southern Africa. Malaria Journal, 14: 12; Stevenson JC, Simubali L, Mbambara S, Musonda M, Mweetwa S, Mudenda T, Pringle JC, Jones CM, Norris DE (2016). Detection of Plasmodium falciparum Infection in Anopheles squamosus (Diptera: Culicidae) in an Area Targeted for Malaria Elimination, Southern Zambia. Journal of Medical Entomology, 53: 1482-1487",26,26.783,-16.434,1161,meters
Zimbabwe,Matabeleland North,Hwange,Chilonga,GeoNames,1962,2014,Y,Y,,,Y,,,,Y,,,,,,,,,,,Y,Y,,Y,Y,,,Adults,"IR, HLC, ABC, CDC Light traps, PSC","M, CBS, DNA",,"An pretoriensis, An quadriannulatus","McIntosh BM, Harwin RM, Paterson HE, Westwater ML (1963). An epidemic of chikungunya in South-Eastern Southern Rhodesia. Central African Journal of Medicine, 43: 351-359; Coetzee M, Hunt RH, Braak LEO, Davidson G (1993). Distribution of mosquitoes belonging to the Anopheles gambiae complex, including malaria vectors, south of latitude 15°S. South African Journal of Science, 89: 227-231; Mpofu SM, Masendu HT, Kanyimo KH, Mtetwa C (1993). Laboratory colonization of Anopheles quadriannulatus from sympatry with other sibling species of the Anopheles gambiae complex in Zimbabwe. Medical & Veterinary Entomology, 7: 122-126; Africa Indoor Residual Spraying (AIRS) Project (2014). Semi-annual Report: April – September 2014. Bethesda, MD. AIRS, Abt Associates Inc, pp. 38",27,27.1667,-18.4,949,meters
Zambia,Lusaka,Lusaka,Chazanga,Combination,2003,2003,Y,Y,,,Y,,,,,,,,,,,,,,,,,,,,,,"Adults, Larvae","PSC, LC","M, PCR",,,"Chanda E, Baboo KS, Shinondo CJ (2012). Transmission attributes of periurban malaria in Lusaka, Zambia, precedent to the integrated vector management strategy: an entomological input. Journal of Tropical Medicine, 2012: 873852",28,28.3188,-15.3498,1225,meters
Zambia,Lusaka,Kafue,Chiawa,GPS,2008,2010,Y,Y,,Y,Y,,,,Y,,,,,,,,,,,,,,,,,,"Adults, Larvae","Exit traps, LC","M, PCR",,,"Chanda E, Hemingway J, Kleinschmidt I, Rehman AM, Ramdeen V, Phiri FN, Coetzer S, Mthembu D, Shinondo CJ, Chizema-Kawesha E, Kamuliwo M, Mukonka V, Baboo KS, Coleman M (2011). Insecticide resistance and the future of malaria control in Zambia. PLoS One, 6: e24336; Lukwa N, Sande S, Makuwaza A, Chiwade T, Netsa M, Asamoa K, Vazquez-Prokopec G, Reithinger R, Williams J (2014). Nationwide assessment of insecticide susceptibility in Anopheles gambiae populations from Zimbabwe. Malaria Journal, 13: 408",29,29.0443,-15.8889,375,meters
Zambia,Lusaka,Luangwa,Nyamumba,Combination,2009,2010,Y,Y,,,Y,,,,Y,Y,Y,Y,Y,Y,,,,,,,Y,,Y,Y,,,Adults,"HLC (indoors & outdoors), Ifakara Tent Trap, CDC Light Trap, Window Traps, Resting Boxes","M, PCR",,"An pretoriensis, An quadriannulatus","Seyoum A, Sikaala CH, Chanda J, Chinula D, Ntamatungiro AJ, Hawela M, Miller JM, Russell TL, Briët OJ, Killeen GF (2012). Human exposure to anopheline mosquitoes occurs primarily indoors, even for users of insecticide-treated nets in Luangwa Valley, South-east Zambia. Parasites & Vectors, 5: 101; Sikaala CH, Killeen GF, Chanda J, Chinula D, Miller JM, Russell TL, Seyoum A (2013). Evaluation of alternative mosquito sampling methods for malaria vectors in Lowland South--East Zambia. Parasites & Vectors, 6: 91",30,30.1612,-15.2018,510,meters
Zimbabwe,Masvingo,Zaka,Chipinda Pools,Pers. Comm,1960,1986,Y,Y,,,Y,,,,Y,,,,,,,,,,,Y,Y,,Y,Y,,,"Adults, Larvae","HBC, PSC, ABC, OS, LC","M, Cross-mating, CBS, Enzyme electrophoresis, DNA",,"An maculipalpis, An pretoriensis, An quadriannulatus","Davidson G (1966). Distribution Records of Member Species of the Anopheles Gambiae Complex (identifications Up to May 1966). WHO/Mal/66.570; McIntosh BM, Paterson HE, McGillivray G, De Sousa J (1964). Further studies on the chikungunya outbreak in Southern Rhodesia in 1962. I. Mosquitoes, wild primates and birds in relation to the epidemic. Annals of Tropical Medicine & Parasitology, 58: 45-51; Paterson HE, Paterson JS, van Eeden GJ (1963). A new member of the Anopheles gambiae complex: a preliminary report. Medical Proceedings, 9: 414-418; Mahon RJ, Green CA, Hunt RH (1976). Diagnostic allozymes for routine identification of adults of the Anopheles gambiae complex (Diptera, Culicidae). Bulletin of Entomological Research, 66: 25-31; Coetzee M, Hunt RH, Braak LEO, Davidson G (1993). Distribution of mosquitoes belonging to the Anopheles gambiae complex, including malaria vectors, south of latitude 15°S. South African Journal of Science, 89: 227-231; Mpofu SM, Masendu HT, Kanyimo KH, Mtetwa C (1993). Laboratory colonization of Anopheles quadriannulatus from sympatry with other sibling species of the Anopheles gambiae complex in Zimbabwe. Medical & Veterinary Entomology, 7: 122-126",31,31.555,-20.3643,757,meters
Mozambique,Gaza,Chokwe,Chokwe,Encarta,1983,2009,Y,Y,,,Y,,Y,,Y,Y,,,,,,,,,,,,,,,,,Adults,IR,"M, CBS, PCR",,,"Petrarca V, Carrara GC, Di Deco MA, Petrangeli G (1984). Osservazioni citogenetiche e biometriche sui membri del complesso Anopheles gambiae in Mozambico. Parassitologia, 26: 247-259; Casimiro S, Coleman M, Mohloai P, Hemingway J, Sharp B (2006). Insecticide resistance in Anopheles funestus (Diptera: Culicidae) from Mozambique. Journal of Medical Entomology, 43: 267-275; Casimiro S, Coleman M, Hemingway J, Sharp B (2006). Insecticide resistance in Anopheles arabiensis and Anopheles gambiae from Mozambique. Journal of Medical Entomology, 43: 276-282; Casimiro SL, Hemingway J, Sharp BL, Coleman M (2007). Monitoring the operational impact of insecticide usage for malaria control on Anopheles funestus from Mozambique. Malaria Journal, 6: 142; Lukwa N, Sande S, Makuwaza A, Chiwade T, Netsa M, Asamoa K, Vazquez-Prokopec G, Reithinger R, Williams J (2014). Nationwide assessment of insecticide susceptibility in Anopheles gambiae populations from Zimbabwe. Malaria Journal, 13: 408; Wondji CS, Dabire RK, Tukur Z, Irving H, Djouaka R, Morgan JC (2011). Identification and distribution of a GABA receptor mutation conferring dieldrin resistance in the malaria vector Anopheles funestus in Africa. Insect Biochemistry & Molecular Biology, 41: 484-491; Witzig C, Parry M, Morgan JC, Irving H, Steven A, Cuamba N, Kerah-Hinzoumbé C, Ranson H, Wondji CS (2013). Genetic mapping identifies a major locus spanning P450 clusters associated with pyrethroid resistance in kdr-free Anopheles arabiensis from Chad. Heredity (Edinb), 110: 389-397",32,32.983,-24.534,32,meters
Mozambique,Manica,Guro,Guro,Encarta,2001,2001,Y,Y,,Y,,,,,,,,,,,,,,,,,,,,,,,Adults,PSC,"M, PCR",,,"Choi KS & Townson H (2012). Evidence for X-linked introgression between molecular forms of Anopheles gambiae from Angola. Medical & Veterinary Entomology, 26: 218-227",33,33.331,-17.434,816,meters
Malawi,Southern Region,Chikwawa,Seseo,GPS,1995,2001,Y,Y,,,Y,,,,Y,,,,,,,,,,,,,,,,,,"Adults, Larvae","CDC Light traps, IR, PSC, LC","M, PCR",,,"Donnelly MJ & Townson H (2000). Evidence for extensive genetic differentiation among populations of the malaria vector Anopheles arabiensis in Eastern Africa. Insect Molecular Biology, 9: 357-367; Spiers AA, Mzilahowa T, Atkinson D, McCal PG (2002). The malaria vectors of the lower shire valley, Malawi. Malawi Medical Journal, 14: 4-7 ",34,34.82,-16.078,89,meters
Malawi,Southern Region,Blantyre,Blantyre,GPS,1911,2014,Y,Y,,,Y,,,,Y,Y,,,,,,,,,,,,,,,,,Adults,IR,"M, DNA, PCR",,,"Kumm HW (1929). The geographical distribution of the malaria carrying mosquitoes: A collection of recorded material in the literature and in personal communications to the author. American Journal of Hygiene, 10: 1-154; op cit collections by JB Davey; Lamborn WA (1925). The Seasonal Habit of the common Anophelines of Nyasaland, with a Note on its Relation to the Seasonal Incidence of Malaria. Bulletin of Entomological Research, 15:361-376; Identified by J.B Davey in 1911; Temu EA, Hunt RH, Coetzee M (2004). Microsatellite DNA polymorphism and heterozygosity in the malaria vector mosquito Anopheles funestus (Diptera: Culicidae) in east and southern Africa. Acta Tropica, 90: 39-49; PMI/CDC/ICEMR/CNTD (2013). unpublished data; Fornadel C & Norris L (2015). President’s Malaria Initiative Country Insecticide Susceptibility Summaries. USAID, April 2015; Mzilahowa T, Luka-Banda M, Uzalili V, Mathanga DP, Campbell CH Jr, Mukaka M, Gimnig JE (2016). Risk factors for Anopheles mosquitoes in rural and urban areas of Blantyre District, southern Malawi. Malawi Medical Journal, 28: 154-158",35,35,-15.7667,1013,meters
Mozambique,Zambezia,Mocuba,CFM,GPS,2002,2008,Y,Y,,,Y,,,,Y,Y,,,,,,,,,,,,,,,,,Adults,"IR, Window exit traps","M, PCR",,,"Abilio AP (2010). Assessing entomological and parasitaemia prevalence to monitor a malaria control programme in Zambézia, Mozambique. Thesis submitted for the award of degree of Master in Philosophy, University of Liverpool, October 2010. pp. 113; Abilio AP, Kleinschmidt I, Rehman AM, Cuamba N, Ramdeen V, Mthembu DS, Coetzer S, Maharaj R, Wilding CS, Steven A, Coleman M, Hemingway J, Coleman M (2011). The emergence of insecticide resistance in central Mozambique and potential threat to the successful indoor residual spraying malaria control programme. Malaria Journal, 10: 110",36,36.994,-16.8374,127,meters
Mozambique,Zambezia,Maganja da Costa,Maganja da Costa,GPS,2006,2014,Y,Y,,,Y,,,,Y,Y,,,,,,,,,,,,,,,,,"Adults, Larvae","IR, Exit traps, LC","M, PCR",,,"Fornadel C & Norris L (2015). President’s Malaria Initiative Country Insecticide Susceptibility Summaries. USAID, April 2015; Abilio AP, Kleinschmidt I, Rehman AM, Cuamba N, Ramdeen V, Mthembu DS, Coetzer S, Maharaj R, Wilding CS, Steven A, Coleman M, Hemingway J, Coleman M (2011). The emergence of insecticide resistance in central Mozambique and potential threat to the successful indoor residual spraying malaria control programme. Malaria Journal, 10: 110; Abilio AP (2010). Assessing entomological and parasitaemia prevalence to monitor a malaria control programme in Zambézia, Mozambique. Thesis submitted for the award of degree of Master in Philosophy, University of Liverpool, October 2010. pp. 113",37,37.5146,-17.3081,50,meters
Madagascar,Atsimo Andrefana,Morombe,Tanandava,Encarta,1967,1967,Y,Y,,,Y,,,,,,,,,,,,,,,,,,,,,,Adults,IR,"M, CBS",,,"Chauvet (1969). Repartition et ecologie du complexe Anopheles gambiae a Madagascar. Cahier ORSTOM, 7: 235-275",43,43.75,-21.715,30,meters
Madagascar,Melaky,Antsalova,Bekopaka,Encarta,1967,1967,Y,Y,,,Y,,,,,,,,,,,,,,,,,,,,,,Adults,IR,"M, CBS",,,"Chauvet (1969). Repartition et ecologie du complexe Anopheles gambiae a Madagascar. Cahier ORSTOM, 7: 235-275",44,44.792,-19.147,45,meters
Madagascar,Menabe,Miandrivazo,Morarano,GPS,2001,2001,Y,Y,,,Y,,,,,,,,,,,,,,,,,,,,,,Adults,HLC,"M, PCR",,,"Le Goff G, Leong Pock Tsy JM, Robert V (2006). Molecular characterization of the malaria vector Anopheles gambiae s.s. in Madagascar. Medical & Veteriranry Entomology, 20: 259-260; Leong Pock Tsy JM, Duchemin JM, Marrama L, Rabarison P, Le Goff G, Rajaonarivelo V, Robert V (2003). Distribution of the species of the Anopheles gambiae complex and first evidence of Anopheles merus as a malaria vector in Madagascar. Malaria Journal, 2: 33",45,45.47,-19.58,175,meters
Madagascar,Betsiboka,Maevatanana,Manjakavaradrano,GPS,1999,2001,Y,Y,,,Y,,,,Y,,,,,,,,,,,,,,,,,,Adults,"HLC, IR, PSC","M, PCR",,,"Rakotomanana F, Randremanana RV, Rabarijaona LP, Duchemin JB, Ratovonjato J, Ariey F, Rudant JP, Jeanne I (2007). Determining areas that require indoor insecticide spraying using multi criteria evaluation, a decision-support tool for malaria vector control programmes in Central Highlands of Madagascar. International Journal of Health Geographics, 6: 2; Leong Pock Tsy JM, Duchemin JM, Marrama L, Rabarison P, Le Goff G, Rajaonarivelo V, Robert V (2003). Distribution of the species of the Anopheles gambiae complex and first evidence of Anopheles merus as a malaria vector in Madagascar. Malaria Journal, 2: 33; Le Goff G, Leong Pock Tsy JM, Robert V (2006). Molecular characterization of the malaria vector Anopheles gambiae s.s. in Madagascar. Medical & Veteriranry Entomology, 20: 259-260",46,46.97,-17.65,708,meters
Madagascar,Analamanga,Manjakandriana,Anjeva,Encarta,1966,1994,Y,Y,,,Y,,,,,,,,,,,,,,,,,,,,,,Adults,ABC,"M, CBS",,,"Chauvet (1969). Repartition et ecologie du complexe Anopheles gambiae a Madagascar. Cahier ORSTOM, 7: 235-275; Ralisoa OB (1996). Biogeographie du complex Anopheles gambiae de Madagascar, vecteur de paludisme. Biogeographie de Madagascar, 1996: 523-534",47,47.666,-18.934,1359,meters
Madagascar,Alaotra Mangoro,Moramanga,Beparasy,Encarta,1966,1966,Y,Y,,,,,,,,,,,,,,,,,,,,,,,,,Adults,IR,"M, CBS",,,"Chauvet (1969). Repartition et ecologie du complexe Anopheles gambiae a Madagascar. Cahier ORSTOM, 7: 235-275",48,48.025,-19.169,899,meters
Madagascar,Analanjirofo,Fenoarivo-Atsinanana,Andapa,GPS,1952,1966,Y,Y,,,Y,,,,,,,,,,,,,,,,,,,Y,,,"Adults, Larvae","Unknown, LC","M, CBS",,An grassei,"Bernard PM (1954). Trois ans de lutte antipaludique a Madagascar. Bulletin de Madagascar, No 96, 387-458; Chauvet (1969). Repartition et ecologie du complexe Anopheles gambiae a Madagascar. Cahier ORSTOM, 7: 235-275",49,49.38,-17.27,57,meters
Angola,Zaire,Soyo,Matajor,Other,2002,2002,Y,Y,,Y,,Y,,,,,,,,,,,,,,,,,,,,,Adults,PSC,"M, PCR",,,"Calzetta M, Santolamazza F, Carrara GC, Cani PJ, Fortes F, Di Deco MA, della Torre A, Petrarca V (2008). Distribution and chromosomal characterization of the Anopheles gambiae complex in Angola. American Journal of Tropical Medicine & Hygiene, 78: 169-175",12,12.3601,-6.1259,5,meters
Angola,Benguela,Lobito,Lobito town,Encarta,2003,2007,Y,Y,Y,Y,,Y,,,,,,,,,,,,,,,,,,,,,"Adults, Larvae","CDC Light traps, HLC, IR, LC","M, PCR",,An listeri,"Carnevale P, Toto JC, Besnard P, Santos MA, Fortes F, Allan R, Manguin S (2015). Spatio-temporal variations of Anopheles coluzzii and An. gambiae and their Plasmodium infectivity rates in Lobito, Angola. Journal of Vector Ecology, 40: 172-179; Marie A, Ronca R, Poinsignon A, Lombardo F, Drame PM, Cornelie S, Besnard P, Le Mire J, Fiorentino G, Fortes F, Carnevale P, Remoue F, Arcà B (2015). The Anopheles gambiae cE5 salivary protein: a sensitive biomarker to evaluate the efficacy of insecticide-treated nets in malaria vector control. Microbes & Infection, 17: 409-416",13,13.53,-12.361,1,meters
Democratic Republic of the Congo,Bas-Congo,Cataractes,Kimpese,GPS,1936,2009,Y,Y,,Y,,,,,Y,,,,,,,Y,,,,,,,,Y,,Y,"Adults, Larvae","PSC, HLC, LC","M, DNA, PCR",,,"Schwetz J (1938). Contribution à l'étude des moustiques de quelques localités du BasCongo et du Kwango. Annales de la Société Belge de Médecine Tropicale, 18: 89-113; Fain A & Henrard C (1948). Quelques moustiques du fleuve Congo (Chenal) et des rivières Kasaï et Kwango. Annales de la Société Belge de Médecine Tropicale, 28: 7-20; Watsenga TN, Manzambi ZM, Nkebolo M, Nsimba B, Mbasani M, Phanzu N, Lubanzadio M, Mablea R, Muyembe TJJ (2009). Enquete preliminarire sur la transmission du paludisme dans les localities de Lukala et Kimpese dans le dstrivt des ctaractes au Bas Congo (RDC). Revue Congaliase des Sciences Nucleaires, 23: 159-161; Kanza JPB, El Fahime E, Alaoui S, Essassi EM, Brooke B, Malafu AN, Tezzo FW (2013). Pyrethroid, DDT and malathion resistance in the malaria vector Anopheles gambiae from the Democratic Republic of Congo. Transactions of the Royal Society of Tropical Medicine & Hygiene, 107: 8-14; Bobanga T, Umesumbu SE, Mandoko AS, Nsibu CN, Dotson EB, Beach RF, Irish SR (2016). Presence of species within the Anopheles gambiae complex in the Democratic Republic of Congo. Transactions of the Royal Society of Tropical Medicine & Hygiene, 110: 373-375; Lips M (1962). Anophéles du Congo (Ex - Belge). 6 – Quelques espèces et variétés du groupe coustani (Myzorhynchus). Références, récoltes, répartition et importance médicale actuelle. Rivista di Parassitologia, 23: 33-59; op cit collection by Schwetz",14,14.7247,-5.5969,395,meters
Angola,Huambo,Huambo,Cazenga 1,Combination,2001,2001,Y,Y,Y,Y,,,,,,,,,,,,,,,,,,,,,,,Adults,PSC,"M, PCR",,,"Cuamba N, Choi KS, Townson H (2006). Malaria vectors in Angola: distribution of species and molecular forms of the Anopheles gambiae complex, their pyrethroid insecticide knockdown resistance (kdr) status and Plasmodium falciparum sporozoite rates. Malaria Journal, 5: 2",15,15.7171,-12.7573,1685,meters
Angola,Malanje,Malanje,Malanje,Encarta,1970,2003,Y,Y,,Y,,,,,,,,,,,,,,,,,Y,,,Y,Y,,"Adults, Larvae","HLC, HBC, ABC, IR, Bednet traps, LC","M, DNA, PCR",,,"Ribeiro H & Ramos HC (1975). Research on the mosquitoes of Angola. VI - The genus Anopheles Meigen, 1818 (Diptera, Culicidae). Check-list with new records, keys to the females and larvae, distribution and bioecological notes. Garcia de Orta, Serie Zoologia, 4: 1-40; Calzetta M, Santolamazza F, Carrara GC, Cani PJ, Fortes F, Di Deco MA, della Torre A, Petrarca V (2008). Distribution and chromosomal characterization of the Anopheles gambiae complex in Angola. American Journal of Tropical Medicine & Hygiene, 78: 169-175; della Torre A, Tu ZJ, Petrarca V (2005). On the distribution and genetic differentiation of Anopheles gambiae s.s. molecular forms. Insect Biochemistry & Molecular Biology, 35: 755-769; op cit report by Carrara et al. (2004)",16,16.341,-9.541,1127,meters
Democratic Republic of the Congo,Bandundu,Kikwit (city),Kikwiit,Encarta,1956,2011,Y,Y,Y,,,,,,,,,,,,,,,,,,,,,Y,,,"Adults, Larvae","PSC, LC","M, DNA, PCR",,,"Rahm U & Vermylen M (1966). Répertoire et répartition des Anophèles de la République Démocratique du Congo. Estratto dalla Rivista di Malariologia, XLV: 1-3; Bobanga TL, Umesumbu SE, Kunyu BS, Fataki OA, Mandoko AS, Nsibu CN (2013). Insecticide resistance in Anopheles gambiae population from RD Congo. 6th Pan-African Malaria Conference “Moving towards malaria elimination: Investing in research and control” Abstract P117: 272; Bobanga T, Umesumbu SE, Mandoko AS, Nsibu CN, Dotson EB, Beach RF, Irish SR (2016). Presence of species within the Anopheles gambiae complex in the Democratic Republic of Congo. Transactions of the Royal Society of Tropical Medicine & Hygiene, 110: 373-375",18,18.815,-5.041,433,meters
Angola,Lunda Sul,Saurimo,Saurimo,Encarta,1970,2002,Y,Y,,Y,,,,,,,,,,,,,,,,,,,,,,,"Adults, Larvae","IR, PSC, LC","M, DNA, PCR",,An concolor,"Ribeiro H & Ramos HC (1975). Research on the mosquitoes of Angola. VI - The genus Anopheles Meigen, 1818 (Diptera, Culicidae). Check-list with new records, keys to the females and larvae, distribution and bioecological notes. Garcia de Orta, Serie Zoologia, 4: 1-40; Calzetta M, Santolamazza F, Carrara GC, Cani PJ, Fortes F, Di Deco MA, della Torre A, Petrarca V (2008). Distribution and chromosomal characterization of the Anopheles gambiae complex in Angola. American Journal of Tropical Medicine & Hygiene, 78: 169-175; Santolamazza F, Calzetta M, Etang J, Barrese E, Dia I, Caccone A, Donnelly MJ, Petrarca V, Simard F, Pinto J, della Torre A (2008). Distribution of knock-down resistance mutations in Anopheles gambiae molecular forms in west and west-central Africa. Malaria Journal, 7: 74; della Torre A, Tu ZJ, Petrarca V (2005). On the distribution and genetic differentiation of Anopheles gambiae s.s. molecular forms. Insect Biochemistry & Molecular Biology, 35: 755-769; op cit report by Carrara et al. (2004)",20,20.391,-9.661,1046,meters
Democratic Republic of the Congo,Kasai-Oriental,Tshilenge,Bakwanga,Encarta,1946,2014,Y,Y,,Y,,,,,Y,,,,,,Y,,,,,,,,,,,,"Adults, Larvae","IR, LC","M, DNA, PCR",,,"Schwetz J, Baumann H, Fort M (1947). Nouvelles recherches sur la répartition des anophèles et du paludisme endémique au Congo belge. I. Région du LubilashSankuru. Annales de la Société Belge de Médecine Tropicale, 27: 289-313; Rahm U & Vermylen M (1966). Répertoire et répartition des Anophèles de la République Démocratique du Congo. Estratto dalla Rivista di Malariologia, XLV: 1-3; Fornadel C & Norris L (2015). President’s Malaria Initiative Country Insecticide Susceptibility Summaries. USAID, April 2015; Bobanga T, Umesumbu SE, Mandoko AS, Nsibu CN, Dotson EB, Beach RF, Irish SR (2016). Presence of species within the Anopheles gambiae complex in the Democratic Republic of Congo. Transactions of the Royal Society of Tropical Medicine & Hygiene, 110: 373-375",23,23.59,-6.136,624,meters
Zambia,Western,Kaoma,Mangango,Encarta,2011,2013,Y,Y,,,,,,,Y,Y,,,,,,,,,,,,,,,,,Adults,IR,"M, Cross-mating",,,"Thomsen EK, Strode C, Hemmings K, Hughes AJ, Chanda E, Musapa M, Kamuliwo M, Phiri FN, Muzia L, Chanda J, Kandyata A, Chirwa B, Poer K, Hemingway J, Wondji CS, Ranson H, Coleman M. Underpinning sustainable vector control through informed insecticide resistance management. PLoS One, 9: e99822; Edward Thomsen (2014). personal communication",24,24.524,-14.617,1180,meters
Zambia,North-Western,Solwezi,Kyabankala,Combination,2011,2013,Y,Y,,,,,,,Y,Y,,,,,,,,,,,,,,,,,Adults,IR,"M, Cross-mating",,,"Thomsen EK, Strode C, Hemmings K, Hughes AJ, Chanda E, Musapa M, Kamuliwo M, Phiri FN, Muzia L, Chanda J, Kandyata A, Chirwa B, Poer K, Hemingway J, Wondji CS, Ranson H, Coleman M. Underpinning sustainable vector control through informed insecticide resistance management. PLoS One, 9: e99822; Edward Thomsen (2014). personal communication",26,26.3573,-12.3662,1329,meters
Democratic Republic of the Congo,Katanga,Lubumbashi (city),Lubumbashi,Google Earth,1921,2011,Y,Y,,Y,,,,,Y,,Y,Y,,,Y,Y,Y,Y,,Y,Y,Y,Y,Y,Y,Y,"Adults, Larvae","IR, ABC, Exit traps, PSC, LC","M, DNA, PCR",,"An maculipalpis, An pretoriensis, An implexus, An natalensis, An theilleri, An christyi, An argenteolobatus, An dureni, An demeilloni, An obscurus, An symesi, An longipalpis, An distinctus, An walravensi, An michaeli, An rhodesiensis, An seydeli","Schwetz J (1947). Notes rétrospectives et bibliographiques sur les études culicidopaludologiques effectuées à Elisabethville et tout spécialement sur les anophèles de cette agglomeration. Annales de la Société Belge de Médecine Tropicale, 27: 381-390; op cit report by Bequaert M; Duren A (1938). Etat actuel de nos connaissances sur les anophèles du Congo belge. Annales de la Société Belge de Médecine Tropicale, 18: 557-580;Lips M (1962). Anopheles du Congo (Ex Belge) Quelques especes des groups cellia et neocellia. Références-Récoltes-Répartition et importance médicale actuelle. Rivista di Parassitologia, 23: 108-134; op cit report by Schwetz; Edwards FW (1926). Mosquito Notes.-VI. Bulletin of Entomological Research, 17: 101-131; personal communication from Dr. Schwetz (1926); Edwards FW (1928). Mosquito Notes.—VII. Bulletin of Entomological Research, 18: 267-284; op cit report by Schwetz (date not specified); Edwards FW (1929). Mosquito Notes.—VIII. Bulletin of Entomological Research, 20: 321-343; op cit report by Schwetz (date not specified); Edwards FW (1930). Mosquito Notes.—IX. Bulletin of Entomological Research, 21: 287-306; op cit report by Dr. Walravens (date not specified); Kumm HW (1929). The geographical distribution of the malaria carrying mosquitoes: A collection of recorded material in the literature and in personal communications to the author. American Journal of Hygiene, 10: 1-154; op cit collections by Schwetz; Schwetz J (1933). Moustiques capturés et moustiques élevés. Annales de la Société Belge de Médecine Tropicale, 13: 429-434; Schwetz J (1947). Notes rétrospectives et bibliographiques sur les études culicidopaludologiques effectuées à Elisabethville et tout spécialement sur les anophèles de cette agglomeration. Annales de la Société Belge de Médecine Tropicale, 27: 381-390; op cit report by Bourguignon and Courtois; Vincke IH (1946). Note sur l’effet du D.D.T. sur Anopheles funestus Giles. Annales de la Societe belge de Médecine Tropicale, pp. 175-184; Vincke IH (1946). Note sur la biologie des Anophèles d’Élisabethville et environs. Annales de la Societe belge de Médecine Tropicale, pp. 385-482; Wolfs (1945). Sur les Anopheles de l'agglomeration de Coquilhatville et sur leur role respectif dans la transmission du paludisme dans cette agglomeration. Annales de la Societe belge de Médecine Tropicale, 25: 225-230; Adam JP, Hamon J, Rickenbach A, Lips M (1956). I.- Description du male et du pharynx de la femelle d'Anopheles brohieri Edwards 1929 et A. hancocki var. masseguini Hamon 1954. II.- Etude des affinites existant entre Anopheles hancocki, A. hancocki var. messeguini, A. brohieri, A. theileri, A. seydeli. Bulletin de la Société de Pathologie Exotique, 49: 747-758; Schwetz J (1941d).  Sur les gites lavaires d’Anopehles pharoensis Theo. et Anopheles squamousus au Congo Belge. Bulletin Sociétés Pathologique Exotique, 34: 153-159;Feuillat F, Parent M, Peeters EME, Vincke IH (1953). Progrès récents dans la lutte antimalarienne au Katanga. Annales de la Société Belge de Médecine Tropicale, 33: 621-674; Rahm U & Vermylen M (1966). Répertoire et répartition des Anophèles de la République Démocratique du Congo. Estratto dalla Rivista di Malariologia, XLV: 1-3; Bobanga TL, Umesumbu SE, Kunyu BS, Fataki OA, Mandoko AS, Nsibu CN (2013). Insecticide resistance in Anopheles gambiae population from RD Congo. 6th Pan-African Malaria Conference “Moving towards malaria elimination: Investing in research and control” Abstract P117: 272; Bobanga T, Umesumbu SE, Mandoko AS, Nsibu CN, Dotson EB, Beach RF, Irish SR (2016). Presence of species within the Anopheles gambiae complex in the Democratic Republic of Congo. Transactions of the Royal Society of Tropical Medicine & Hygiene, 110: 373-375",27,27.4795,-11.6628,1232,meters
Zambia,Luapula,Nchelenge,Kapande B,GPS,2012,2013,Y,Y,Y,Y,,,,,Y,Y,,Y,,,,,,,,,,,,,,,Adults,"IR, PSC, CDC Light traps","M, DNA, PCR",,,"Das S, Muleba M, Stevenson JC, Norris DE (2016). Southern Africa International Centers of Excellence for malaria research team. Habitat partitioning of malaria vectors in Nchelenge District, Zambia. American Journal of Tropical Medicine & Hygiene, 94: 1234-1244",28,28.7861,-9.3455,974,meters
Zambia,Luapula,Samfya,Samfya,Encarta,1999,1999,Y,Y,,Y,,,,,,,,,,,,,,,,,,,,,,,Adults,Exit traps,"M, PCR",,,"Chanda E, Hemingway J, Kleinschmidt I, Rehman AM, Ramdeen V, Phiri FN, Coetzer S, Mthembu D, Shinondo CJ, Chizema-Kawesha E, Kamuliwo M, Mukonka V, Baboo KS, Coleman M (2011). Insecticide resistance and the future of malaria control in Zambia. PLoS One, 6: e24336",29,29.539,-11.347,1189,meters
Zambia,Central,Serenje,Serenje,Google Earth,2014,2014,Y,Y,,,,,,,Y,,,,,,,,,,,,,,,,,,Adults,"CDC Light traps, PSC, HLC","M, PCR",,,"Africa Indoor Residual Spraying (AIRS) Project (2014). Semi-annual Report: April – September 2014. Bethesda, MD. AIRS, Abt Associates Inc, pp. 38",30,30.234,-13.2326,1429,meters
Tanzania,Tabora,Urambo,Kaliua,Encarta,2007,2007,Y,Y,,,Y,,,,Y,,,,,,,,,,,,,,,,,,Adults,CDC Light trap,"M, PCR",,,"Ng'habi KR, Knols BG, Lee Y, Ferguson HM, Lanzaro GC (2011). Population genetic structure of Anopheles arabiensis and Anopheles gambiae in a malaria endemic region of southern Tanzania. Malaria Journal, 10: 289",31,31.791,-5.051,1090,meters
Zambia,Eastern,Chipata,Mashanga,Encarta,2011,2013,Y,Y,,,,,,,Y,Y,,,,,,,,,,,,,Y,Y,,,Adults,IR,"M, Cross-Mating",,,"Thomsen EK, Strode C, Hemmings K, Hughes AJ, Chanda E, Musapa M, Kamuliwo M, Phiri FN, Muzia L, Chanda J, Kandyata A, Chirwa B, Poer K, Hemingway J, Wondji CS, Ranson H, Coleman M. Underpinning sustainable vector control through informed insecticide resistance management. PLoS One, 9: e99822; Edward Thomsen (2014). personal communication",32,32.767,-13.7,1203,meters
Malawi,Northern Region,Karonga,Karonga,GPS,1910,2014,Y,Y,,,Y,,,,Y,Y,Y,,,,,,,,,,,,,,,,Adults,IR,"M, PCR, DNA, Cross-mating",An funestus-like,,"Kumm HW (1929). The geographical distribution of the malaria carrying mosquitoes: A collection of recorded material in the literature and in personal communications to the author. American Journal of Hygiene, 10: 1-154; op cit collections by SA Neave, AG Eldred & WA Lamborn; Lamborn WA (1925). The Seasonal Habit of the common Anophelines of Nyasaland, with a Note on its Relation to the Seasonal Incidence of Malaria. Bulletin of Entomological Research, 15:361-376; Identified by A.G Eldred in 1913; Choi KS, Koekemoer LL, Coetzee M (2012). Population genetic structure of the major malaria vector Anopheles funestus s.s. and allied species in southern Africa. Parasites & Vectors, 5: 283; Koekemoer LL, Kamau L, Garros C, Manguin S, Hunt RH, Coetzee M (2006). Impact of the Rift Valley on restriction fragment length polymorphism typing of the major African malaria vector Anopheles funestus (Diptera: Culicidae). Journal of Medical Entomology, 43: 1178-1184; Spillings BL, Brooke BD, Koekemoer LL, Chiphwanya J, Coetzee M, Hunt RH (2009). A new species concealed by Anopheles funestus Giles, a major malaria vector in Africa. American Journal of Tropical Medicine & Hygiene, 83: 510-515; Choi KS, Coetzee M, Koekemoer LL (2010). Simultaneous identification of the Anopheles funestus group and Anopheles longipalpis type C by PCR-RFLP. Malaria Journal, 9: 316; Choi KS, Coetzee M, Koekemoer LL (2013). Detection of clade types (clades I and II) within Anopheles funestus sensu stricto by the hydrolysis probe analysis (TaqMan assay). Parasites & Vectors, 6: 173; Kikankie CK, Brooke BD, Knols BG, Koekemoer LL, Farenhorst M, Hunt RH, Thomas MB, Coetzee M (2010). The infectivity of the entomopathogenic fungus Beauveria bassiana to insecticide-resistant and susceptible Anopheles arabiensis mosquitoes at two different temperatures. Malaria Journal, 9: 71; Fornadel C & Norris L (2015). President’s Malaria Initiative Country Insecticide Susceptibility Summaries. USAID, April 2015; Koekemoer LL, Kamau L, Garros C, Manguin S, Hunt RH, Coetzee M (2006). Impact of the Rift Valley on restriction fragment length polymorphism typing of the major African malaria vector Anopheles funestus (Diptera : Culicidae). Journal of Medical Entomology, 43: 1178-1184",33,33.936,-9.933,485,meters
Malawi,Central Region,Salima,Salima,GPS,2009,2014,Y,Y,,,Y,,,,Y,Y,,,,,,,,,,,,,,,,,"Adults, Larvae","IR, PSC, LC","M, PCR",,,"Fornadel C & Norris L (2015). President’s Malaria Initiative Country Insecticide Susceptibility Summaries. USAID, April 2015; Lukwa N, Sande S, Makuwaza A, Chiwade T, Netsa M, Asamoa K, Vazquez-Prokopec G, Reithinger R, Williams J (2014). Nationwide assessment of insecticide susceptibility in Anopheles gambiae populations from Zimbabwe. Malaria Journal, 13: 408; op cit report by PMI, 2012; Africa Indoor Residual Spraying (AIRS) Project (2014). Semi-annual Report: April – September 2014. Bethesda, MD. AIRS, Abt Associates Inc, pp. 38; Mzilahowa T, Chiumia M, Mbewe RB, Uzalili VT, Luka-Banda M, Kutengule A, Mathanga DP, Ali D, Chiphwanya J, Zoya J, Mulenga S, Dodoli W, Bergeson-Lockwood J, Troell P, Oyugi J, Lindblade K, Gimnig JE (2016). Increasing insecticide resistance in Anopheles funestus and Anopheles arabiensis in Malawi, 2011-2015. Malaria Journal, 15: 563",34,34.4579,-13.7879,504,meters
Mozambique,Niassa,Sanga,Unango,Encarta,1984,1984,Y,Y,,,Y,,,,,,,,,,,,,,,,,,,,,,Adults,IR,"M, CBS",,,"Petrarca V, Carrara GC, Di Deco MA, Petrangeli G (1984). Osservazioni citogenetiche e biometriche sui membri del complesso Anopheles gambiae in Mozambico. Parassitologia, 26: 247-259",35,35.405,-12.875,1054,meters
Tanzania,Morogoro,Kilombero,Mikeregembe,Combination,2007,2007,Y,Y,,,Y,,,,Y,,,,,,,,,,,,,,,,,,Adults,CDC Light trap,"M, PCR",,,"Ng'habi KR, Knols BG, Lee Y, Ferguson HM, Lanzaro GC (2011). Population genetic structure of Anopheles arabiensis and Anopheles gambiae in a malaria endemic region of southern Tanzania. Malaria Journal, 10: 289",36,36.9808,-7.9784,258,meters
Tanzania,Tanga,Handeni,Bumba,Encarta,1957,1965,Y,Y,,,Y,,,,,,,,,,,,,,,,,,,,,,Adults,"OS, IR","M, Cross-mating",,,"Davidson G (1966). Distribution Records of Member Species of the Anopheles Gambiae Complex (identifications Up to May 1966). WHO/Mal/66.570; Smith A (1958). Dieldrin resistance.Annual report of the East African Institute of Malaria & Vector Borne Diseases, July 1957-June 1958. East African Common Services Organization",37,37.949,-5.649,686,meters
Tanzania,Pwani,Bagamoyo,Kaole,Encarta,1996,1996,Y,Y,,,Y,,Y,,Y,,,,,,,,,,,,,,,,,,Adults,Unknown,"M, PCR",,,"Temu EA, Minjas JN, Coestzee M, Hunt RH, Shiff CJ (1998). The role of four anopheline species (Diptera: Culicidae) in malaria transmission in coastal Tanzania. Transactions of the Royal Society of Tropical Medicine & Hygiene, 92: 152-158; MosquitoMap (2009)",38,38.951,-6.462,10,meters
Zanzibar,Unguja North,North B,Kiomba Mvua,GeoNames,2013,2014,Y,Y,,,Y,,,,,,,,,,,,,,,,,,,,,,Larvae,LC,"M, PCR",,,"Haji KA, Thawer NG, Khatib BO, Mcha JH, Rashid A, Ali AS, Jones C, Bagi J, Magesa SM, Ramsan MM, Garimo I, Greer G, Reithinger R, Ngondi JM (2015). Efficacy, persistence and vector susceptibility to pirimiphos-methyl (Actellic (R) 300CS) insecticide for indoor residual spraying in Zanzibar. Parasites & Vectors, 8: 628",39,39.2141,-6.0255,31,meters
Mozambique,Nampula,Mossuril,Mossuril,Encarta,2000,2000,Y,Y,,,,,Y,,,,,,,,,,,,,,,,,,,,Adults,PSC,"M, PCR",,,"Cuamba N & Mendis C (2009). The role of Anopheles merus in malaria transmission in an area of southern Mozambique. Journal of Vector Borne Diseases, 46: 157-159",40,40.659,-14.96,16,meters
Comoros,Ngazidja,,Djoumachongo,Combination,2001,2001,Y,Y,,Y,,,,,,,,,,,,,,,,,,,,,,,Adults,"PSC, HLC","M, DNA, PCR",,,"Pock Tsy JML, Elissa N, Ouledi A, Ariey F, Duchemin JB, Robert V (2003).Caractérisation moléculaire des moustiques du complexe Anopheles gambiae à Mayotte et à Grande Comore. Parasite, 10: 273-276",43,43.4317,-11.8711,614,meters
Comoros,Anjouan,,Assimpao,Encarta,1988,2011,Y,Y,,,,,Y,,Y,,,,,,,,,,,,,,,,,,Adults,"PSC, HLC","M, CBS, PCR",,An pretoriensis,"Petrarca V, Sabatinelli G, Di Deco MA, Papakay M (1990). The Anopheles gambiae complex in the Federal Islamic Republic of Comoros (Indian Ocean): some cytogenetic and biometric data. Parassitologia, 32: 371-380; Sabatinelli G, Romi R, Blanchy S (1991). Antibody levels against circumsporozoitic protein of Plasmodium falciparum and their use as epidemiological indicators of malaria transmission in FIR of Comoros. Annales de Parasitologie Humaine et Comparée, 66: 179-184; Sabatinelli G, Ranieri E, Gianzi FP, Papakay M, Cancrini G (1994). Role of Culex quinquefasciatus in the transmission of bancroftian filariasis in the Federal Islamic Republic of Comoros (Indian Ocean). Parasite, 1: 71-76; Marsden CD, Cornel A, Lee Y, Sanford MR, Norris LC, Goodell PB, Nieman CC, Han S, Rodrigues A, Denis J, Ouledi A, Lanzaro GC (2013). An analysis of two island groups as potential sites for trials of transgenic mosquitoes for malaria control. Evolutionary Applications, 6: 706-720",44,44.316,-12.217,230,meters
Mayotte,,,Mtsamgamouji Embato,Combination,2002,2002,Y,Y,,Y,,,,,,,,,,,,,,,,,,,,,,,Larvae,LC,"M, DNA, PCR",,,"Pock Tsy JML, Elissa N, Ouledi A, Ariey F, Duchemin JB, Robert V (2003).Caractérisation moléculaire des moustiques du complexe Anopheles gambiae à Mayotte et à Grande Comore. Parasite, 10: 273-276",45,45.0866,-12.7614,81,meters
Madagascar,Sofia,Analalava,Ananalava,Google Earth,1952,1962,Y,Y,,,Y,,,,,,,,,,,,,,Y,,,,,Y,,,"Adults, Larvae","IR, PSC, HBC, ABC, Bednet traps, Exit traps, LC","M, CBS",,"An milloti, An maculipalpis","Grjebine A (1966). Faune de Madagascar XXII. Insectes Dipteres Culicidae Anophelinae. ORSTOM Paris, 487 pp.; assembly of previous survey data by Institute Pasteur & Others; Chauvet (1969). Repartition et ecologie du complexe Anopheles gambiae a Madagascar. Cahier ORSTOM, 7: 235-275",47,47.7505,-14.6377,53,meters
Madagascar,Diana,Ambanja,Marotolana,Encarta,1967,1967,Y,Y,,,Y,,,,,,,,,,,,,,,,,,,,,,Adults,IR,"M, CBS",,,"Chauvet (1969). Repartition et ecologie du complexe Anopheles gambiae a Madagascar. Cahier ORSTOM, 7: 235-275",48,48.616,-14.017,131,meters
Madagascar,Diana,Ambilobe,Region Nord,Combination,1964,1968,Y,Y,,,Y,,,,,,,,,,,,,,,,,,,,,,Larvae,LC,"M, Cross-mating, Chetotaxic method",,,"Chauvet G, Davidson G, Déjardin J (1969). Validité d'une méthode chétotaxique de distinction des larves des espèces A et B du complexe Anopheles gambiae Giles à Madagascar. Cahiers ORSTOM, Série Entomologie Médicale et Parasitologie, 7: 51-60",49,49.1792,-13.8081,651,meters
Madagascar,Sava,Antalaha,Antalaha,Google Earth,1952,1966,Y,Y,,,Y,,,,Y,,,,,,,,Y,,,Y,Y,,,Y,,,"Adults, Larvae","IR, PSC, HBC, ABC, Bednet traps, Exit traps, LC","M, CBS",An funestus var confusus,"An grassei, An pauliani, An maculipalpis","Grjebine A (1966). Faune de Madagascar XXII. Insectes Dipteres Culicidae Anophelinae. ORSTOM Paris, 487 pp.; assembly of previous survey data by Institute Pasteur & Others; Bernard PM (1954). Trois ans de lutte antipaludique a Madagascar. Bulletin de Madagascar, No 96, 387-458; Chauvet (1969). Repartition et ecologie du complexe Anopheles gambiae a Madagascar. Cahier ORSTOM, 7: 235-275",50,50.2718,-14.9,25,meters
Côte d'Ivoire,Bas Sassandra,Tabou,Blieron,Other,1968,1968,Y,Y,,,,Y,,,,,,,,,,,,,,,,,,,,,Larvae,LC,"M, CBS",,,"Coz J (1973). Contribution a l’etude du complexe A. gambiae repartition geographique et saisonnière en Afrique de l'Ouest. Cahiers ORSTOM, Série Entomologie Médicale et Parasitologie, 11: 3-31",-7,-7.5167,4.3667,4,meters
Côte d'Ivoire,Bas Sassandra,San-pedro,Camp Bernard,Other,1998,2009,Y,Y,,,,,,,,,,,,,,,,,,,,,,,,,Unknown,Unknown,"M, Unknown",,,"Koffi AA, Ahoua Alou PL, Adja AM, Konan YL, Manga L, Bagayoko M, Bitsindou P (2009). Profil entomologique du paludisme en Côte d’Ivoire 1956-2009. WHO/ANVR/2009; digitzed from maps provided in report to nearest village",-6,-6.6333,4.8167,21,meters
Ghana,Western,Nzema East,Axim,GPS,1940,2013,Y,Y,Y,Y,,Y,,,Y,,,,,,,,,,,,,,,Y,,,"Adults, Larvae","CDC Light trap, PSC, LC","M, DNA, PCR",,"An hargeavesi, An cinctus, An obscurus (var nowlini)","Mattingly PF (1947). Notes on the early stages of certain Ethiopian mosquitoes from some locality records from British West Africa. Annals of Tropical Medicine & Parasitology, 47: 239-251 (citing MD Froud); Dunyo SK, Appawu M, Nkrumah FK, Baffoe-Wilmot A, Pedersen EM, Simonsen PE (1996). Lymphatic filariasis on the coast of Ghana. Transactions of the Royal Society of Tropical Medicine & Hygiene, 90: 634 - 638; De Souza D, Kelly-Hope L, Lawson B, Wilson M, Boakye D (2010). Environmental Factors Associated with the Distribution of Anopheles gambiae s.s in Ghana; an Important Vector of Lymphatic Filariasis and Malaria. PLoS one, 5: e9927; op cit report by Boakye et al., 2004 Report to the Ghana Malaria Control Program; Essandoh J, Yawson AE, Weetman D (2013). Acetylcholinesterase (Ace-1) target site mutation 119S is strongly diagnostic of carbamate and organophosphate resistance in Anopheles gambiae s.s. and Anopheles coluzzii across southern Ghana. Malaria Journal, 12: 404; Dery D, Asante KP, Oduro A, Asoalla V, Owusu-Agyei S (2013). Baseline entomological studies in ten districts of Ghana. Report for the AngloGold Ashanti Company by the Kintampo Health Research Centre and the Navrongo Health Research Centre, lot number E1090, 2013; Dery DB, Segbaya S, Asoalla V, Amoyaw F, Amoako N, Agyeman-Budu A, Oduro A, Owusu-Agyei S, Asante KP (2016). Anopheles gambiae (Diptera: Culicidae) Susceptibility to Insecticides and Knockdown Resistance Genes Prior to Introduction of Indoor Residual Spraying in 11 Districts in Ghana. Journal of Medical Entomology, 53: 1403-1409",-2,-2.2387,4.8663,15,meters
Ghana,Western,Ahanta West,Butre,Combination,1994,2008,Y,Y,Y,Y,,Y,,,Y,,,,,,,,,,,,,,,,,,Adults,"CDC Light trap, HLC","M, CBS, PCR",,,"Dunyo SK, Appawu M, Nkrumah FK, Baffoe-Wilmot A, Pedersen EM, Simonsen PE (1996). Lymphatic filariasis on the coast of Ghana. Transactions of the Royal Society of Tropical Medicine & Hygiene, 90: 634 - 638; De Souza D, Kelly-Hope L, Lawson B, Wilson M, Boakye D (2010). Environmental Factors Associated with the Distribution of Anopheles gambiae s.s in Ghana; an Important Vector of Lymphatic Filariasis and Malaria. PLoS one, 5: e9927",-1,-1.9204,4.8239,17,meters
Equatorial Guinea,Annobon,,Annobon,Google Earth,2004,2004,Y,Y,Y,,,,,,,,,,,,,,,,,,,,,,,,Adults,"HLC, CDC Light traps","M, DNA, PCR",,,"Salgueiro P, Moreno M, Simard F, O'Brochta D, Pinto J (2013). New insights into the population structure of Anopheles gambiae s.s. in the Gulf of Guinea Islands revealed by Herves transposable elements. PLoS One, 8: e62964; Moreno M, Salgueiro P, Vicente JL, Cano J, Berzosa PJ, de Lucio A, Simard F, Caccone A, Do Rosario VE, Pinto J, Benito A (2007). Genetic population structure of Anopheles gambiae in Equatorial Guinea. Malaria Journal, 6: 137",5,5.6221,-1.4204,115,meters
Sao Tome and Principe,Sao Tome,,Trindade,Google Earth,1961,1997,Y,Y,,,,,,,,,,,,,,,,,,,,,,,,,"Adults, Larvae","HLC, LC","M, PCR",,,"Mourão MC (1964). Relatório da Missão de estudo e combate de endemias de São Tomé e Principe (1º semestre de 1962). Anais do Instituto de Medicina Tropical, 21: 501-539; Pinto J, Sousa CA, Gil V, Ferreira C, Gonçalves L, Lopes D, Petrarca V, Charlwood JD, do Rosário VE (2000). Malaria in São Tomé and Príncipe: parasite prevalences and vector densities. Acta Tropica, 76: 185-193",6,6.68,0.3,281,meters
Sao Tome and Principe,Principe,,Rua Trabalhadores,Other,1997,1998,Y,Y,Y,,,,,,,,,,,,,,,,,,,,,Y,,,"Adults, Larvae","IR, OS,CDC Light traps, HLC,  LC","M, DNA, PCR",,,"Salgueiro P, Moreno M, Simard F, O'Brochta D, Pinto J (2013). New insights into the population structure of Anopheles gambiae s.s. in the Gulf of Guinea Islands revealed by Herves transposable elements. PLoS One, 8: e62964; Santolamazza F, Calzetta M, Etang J, Barrese E, Dia I, Caccone A, Donnelly MJ, Petrarca V, Simard F, Pinto J, della Torre A (2008). Distribution of knock-down resistance mutations in Anopheles gambiae molecular forms in west and west-central Africa. Malaria Journal, 7: 74",7,7.4167,1.6333,142,meters
Equatorial Guinea,Bioko Sur,,Riaba,Encarta,1998,2009,Y,Y,Y,Y,,Y,,,Y,,,,,,,,,,,,,,,,,,Adults,"IR, HLC, Light traps, Window trap, CDC light traps","M, DNA, PCR",,,"Cano J, Berzosa PJ, Roche J, Rubio JM, Moyano E, Guerra-Neiba A, Brochero H, Mico M, Edu M, Benito A (2004). Malaria vectors in the Bioko Island (Equatorial Guinea): Estimation of vectors dynamics and transmission intensities. Journal of Medical Entomology, 41: 158-161; Sharp BL, Ridl FC, Govender D, Kuklinski J, Kleinschmidt I (2007). Malaria vector control by indoor residual insecticide spraying on the tropical island of Bioko, Equatorial Guinea. Malaria Journal, 6: 52; Overgaard HJ, Reddy VP, Abaga S, Matias A, Reddy MR, Kulkarni V, Schwabe C, Segura L, Kleinschmidt I, Slotman MA (2012). Malaria transmission after five years of vector control on Bioko Island, Equatorial Guinea. Parasites and Vectors, 5: 253; Overgaard HJ, Saebo S, Reddy MR, Reddy VP, Abaga S, Matias A, Slotman MA (2012). Light traps fail to estimate reliable malaria mosquito biting rates on Bioko Island, Equatorial Guinea. Malaria Journal, 11:56",8,8.755,3.398,115,meters
Gabon,Estuaire,Libreville,Alibandeng,Google Earth,2008,2010,Y,Y,,Y,,,,,,,,,,,,,,,,,,,,,,,Adults,HLC,"M, PCR",,,"Mourou JR, Coffinet T, Jarjaval F, Cotteaux C, Pradines E, Godefroy L, Kombila M, Pagès F (2012). Malaria transmission in Libreville: results of a one year survey. Malaria Journal, 11: 40",9,9.4207,0.4564,13,meters
Equatorial Guinea,Centro Sur,,Bisun,Encarta,2006,2007,Y,Y,,Y,,,,,Y,,,,,,,Y,,,,,,,,,,,Adults,Window trap,"M, PCR",,,"Ridl FC, Bass C, Torrez M, Govender D, Ramdeen V, Yellot L, Edu AE, Schwabe C, Mohloai, Mahraj R, Kleinschmidt I (2008). A pre-intervention study of malaria vector abundance in Rio Muni, Equatorial Guinea: Their role in malaria transmission and the incidence of insecticide resistance alleles. Malaria Journal, 7:194.",10,10.3,1.717,704,meters
Equatorial Guinea,Welenzas,,Nsok Nsomo,Encarta,2009,2009,Y,Y,,,,,,,Y,,,,,,,Y,,,,,,,,,,,Adults,CDC Light trap,"M, DNA, PCR",,,"Pappa V, Reddy M, Overgaard HJ, Abaga S, Caccone A (2011). Short report: Estimation of the human blood index in malaria mosquito vectors in Equatorial Guinea after indoor antivector interventions. American Journal of Tropical Medicine & Hygiene, 84: 298-301.",11,11.266,1.131,565,meters
Cameroon,Centre,Haute-Sanaga,Nkoteng,GPS,1998,2007,Y,Y,Y,Y,Y,,,,Y,Y,,,,,Y,Y,,Y,,,,Y,,Y,Y,Y,Adults,"HLC, PSC, Bednet traps, CDC Light traps, IR","M, DNA, PCR",,,"Ayala D, Costantini C, Ose K, Kamdem GC, Antonio-Nkondjio C, Agbor JP, Awono-Ambene P, Fontenille D, Simard F (2009). Habitat suitability and ecological niche profile of major malaria vectors in Cameroon. Malaria Journal, 8: 307; Antonio-Nkondjio C, Demanou M, Etang J, Bouchite B (2013). Impact of cyfluthrin (Solfac EW050) impregnated bed nets on malaria transmission in the city of Mbandjock : lessons for the nationwide distribution of long-lasting insecticidal nets (LLINs) in Cameroon. Parasites & Vectors, 6: 10; Wondji C, Simard F, Fontenille D (2002). Evidence for genetic differentiation between the molecular forms M and S within the Forest chromosomal form of Anopheles gambiae in an area of sympatry. Insect Molecular Biology, 11: 11-19; Wondji C, Frédéric S, Petrarca V, Etang J, Santolamazza F, Della Torre A, Fontenille D (2005). Species and populations of the Anopheles gambiae complex in Cameroon with special emphasis on chromosomal and molecular forms of Anopheles gambiae s.s. Journal of Medical Entomology, 42: 998-1005; Antonio-Nkondjio C, Kerah CH, Simard F, Awono-Ambene P, Chouaibou M, Tchuinkam T, Fontenille D (2006). Complexity of the malaria vectorial system in Cameroon: contribution of secondary vectors to malaria transmission. Journal of Medical Entomology, 43: 1215-1221; Ayala D, Costantini C, Ose K, Kamdem GC, Antonio-Nkondjio C, Agbor JP, Awono-Ambene P, Fontenille D, Simard F (2009). Habitat suitability and ecological niche profile of major malaria vectors in Cameroon. Malaria Journal, 8: 307; Dia I, Boccolini D, Antonio-Nkondjio C, Costantini C, Fontenille D (2000). Chromosomal inversion polymorphism of Anopheles funestus from forest villages of South Cameroon. Parassitologia, 42: 227-229; Cohuet A, Simard F, Wondji CS, Antonio-Nkondjio C, Awono-Ambene P, Fontenille D (2004). High malaria transmission intensity due to Anopheles funestus (Diptera: Culicidae) in a village of savannah-forest transition area in Cameroon. Journal of Medical Entomology, 41: 901-905; Cohuet A, Dia I, Simard F, Raymond M, Rousset F, Antonio-Nkondjio C, Awono-Ambene PH, Wondji CS, Fontenille D (2005). Gene flow between chromosomal forms of the malaria vector Anopheles funestus in Cameroon, Central Africa, and its relevance in malaria fighting. Genetics, 169: 301-311; della Torre A, Tu ZJ, Petrarca V (2005). On the distribution and genetic differentiation of Anopheles gambiae s.s. molecular forms. Insect Biochemistry & Molecular Biology, 35: 755-769; op cit report by Wondji et al. (2005); della Torre A, Fanello C, Akogbeto M, Dossou-yovo J, Favia G, Petrarca V, Coluzzi M (2001). Molecular evidence of incipient speciation within Anopheles gambiae s.s. in West Africa. Insect Molecular Biology, 10: 9-18",12,12.0521,4.5196,584,meters
Cameroon,Est,Lom-Et-Djerem,Bertoua,Google Earth,1950,2006,Y,Y,Y,Y,,,,,Y,,,,,,,,,,,,,,,Y,Y,,"Adults, Larvae","HBC, IR, OS, CDC Light traps, LC","M, DNA, PCR",,,"Hamon J, Adam JP, Grjebine A (1956). Observations sur la répartition et le comportement des anophèles de l'Afrique-Equatoriale Française, du Cameroun et de l'Afrique Occidentale. Bulletin of World Health Organization, 15: 549-591; Adam JP & Mouchet J (1957). Répartition géographique des anophèles au Cameroun Français. Yaoundé : IRCAM, 1957, 10 p.; Institut Pasteur de la Re_publique fe_de_rale du Cameroun (1962). Rapport Technique, pp 71-75; Etang J, Vicente JL, Nwane P, Chouaibou M, Morlais I, Do Rosario VE, Simard F, Awono-Ambene P, Toto JC, Pinto J (2009). Polymorphism of intron-1 in the voltage-gated sodium channel gene of Anopheles gambiae s.s. populations from Cameroon with emphasis on insecticide knockdown resistance mutations. Molecular Ecology, 18: 3076-3086; Reimer L, Fondjo E, Patchoké S, Diallo B, Lee Y, Ng A, Ndjemai HM, Atangana J, Traore SF, Lanzaro G, Cornel AJ (2008). Relationship between kdr mutation and resistance to pyrethroid and DDT insecticides in natural populations of Anopheles gambiae. Journal of Medical Entomology, 45: 260-266; Ndjemaï HN, Patchoké S, Atangana J, Etang J, Simard F, Bilong CF, Reimer L, Cornel A, Lanzaro GC, Fondjo E (2009). The distribution of insecticide resistance in Anopheles gambiae s.l. populations from Cameroon: an update. Transactions of the Royal Society of Tropical Medicine & Hygiene, 103: 1127-1138",13,13.6834,4.5833,658,meters
Cameroon,Est,Kadei,Banyo,Encarta,1948,2003,Y,Y,,Y,,,,,,,,,,,Y,,,,,,,,,Y,,,"Adults, Larvae","HLC, PSC, Bednet traps, CDC Light traps, OS, LC","M, PCR",,,"Mouchet J & Gariou J (1961). Répartition géographique et écologique des Anophèles du Cameroun. Bulletin de la Société de Pathologie Exotique, 54: 102-118; Digitized from maps shown in paper against GAUL Admin 2 presumed surveys done between 1948 and 1959, checked against primary entries during this period; Hamon J, Adam JP, Grjebine A (1956). Observations sur la répartition et le comportement des anophèles de l'Afrique-Equatoriale Française, du Cameroun et de l'Afrique Occidentale. Bulletin of World Health Organization, 15: 549-591; Antonio-Nkondjio C, Kerah CH, Simard F, Awono-Ambene P, Chouaibou M, Tchuinkam T, Fontenille D (2006). Complexity of the malaria vectorial system in Cameroon: contribution of secondary vectors to malaria transmission. Journal of Medical Entomology, 43: 1215-1221; Ayala D, Costantini C, Ose K, Kamdem GC, Antonio-Nkondjio C, Agbor JP, Awono-Ambene P, Fontenille D, Simard F (2009). Habitat suitability and ecological niche profile of major malaria vectors in Cameroon. Malaria Journal, 8: 307; Wondji C, Frédéric S, Petrarca V, Etang J, Santolamazza F, Della Torre A, Fontenille D (2005). Species and populations of the Anopheles gambiae complex in Cameroon with special emphasis on chromosomal and molecular forms of Anopheles gambiae s.s. Journal of Medical Entomology, 42: 998-1005",14,14.017,4.485,658,meters
Democratic Republic of the Congo,Kinshasa,Kinshasa,Kisenso,Google Earth,2002,2003,Y,Y,Y,Y,,,,,Y,,,,,,,,,,,,,,,,,,Adults,PSC,"M, PCR",,,"Watsenga TN, Manzambi ZE, Atua B, Punga JK, Bobanga T, Mulumba DE, Hawley W, Muyembe T (2003). Contribution a l'etude des formes moelculaires M et S d'anopeles gambaie s.s. a Kinshasa (DRC). Unpublished iNRB report",15,15.3425,-4.4094,334,meters
Central African Republic,Sangha Mbaere,Bayanga,Bayanga (Doli Lodge),Google Earth,2001,2001,Y,Y,Y,Y,,,,,,,,,,,,,,,,,,,,,,,Adults,IR,"M, DNA, PCR",,,"della Torre A, Tu ZJ, Petrarca V (2005). On the distribution and genetic differentiation of Anopheles gambiae s.s. molecular forms. Insect Biochemistry & Molecular Biology, 35: 755-769; op cit report by Medjibe, Caccone, Powell, della Torre, Unpublished data",16,16.2618,2.9121,410,meters
Democratic Republic of the Congo,Bandundu,Bandundu (city),Bandundu,Google Earth,1948,2011,Y,Y,Y,,,,,,Y,,,,,,Y,Y,,,,,,,,Y,Y,Y,"Adults, Larvae","PSC, LC","M, DNA, PCR",,,"Karch S & Mouchet J (1992). An paludis vectouer important du paludisme au Zaire. Bulletin de la Société de Pathologie Exotique, 85: 388-389; Bobanga TL, Umesumbu SE, Kunyu BS, Fataki OA, Mandoko AS, Nsibu CN (2013). Insecticide resistance in Anopheles gambiae population from RD Congo. 6th Pan-African Malaria Conference “Moving towards malaria elimination: Investing in research and control” Abstract P117: 272; Bobanga T, Umesumbu SE, Mandoko AS, Nsibu CN, Dotson EB, Beach RF, Irish SR (2016). Presence of species within the Anopheles gambiae complex in the Democratic Republic of Congo. Transactions of the Royal Society of Tropical Medicine & Hygiene, 110: 373-375; Lips M (1962). Anophéles du Congo (Ex - Belge). 6 – Quelques espèces et variétés du groupe coustani (Myzorhynchus). Références, récoltes, répartition et importance médicale actuelle. Rivista di Parassitologia, 23: 33-59; op cit collection by Fain & Henrard",17,17.3856,-3.3152,307,meters
Central African Republic,Bangui,Bangui,Yakité,Combination,2013,2013,Y,Y,Y,Y,,,,,,,,,,,,,,,,,,,,,,,Adults,"HLC, PSC, IR, OS","M, DNA, PCR",,,"Ndiath MO, Eiglmeier K, Olé Sangba ML, Holm I, Kazanji M, Vernick KD (2016). Composition and genetics of malaria vector populations in the Central African Republic. Malaria Journal, 15: 387",18,18.5477,4.3726,367,meters
Democratic Republic of the Congo,Kasai-Oriental,Sankuru,Ilebo,Other,1956,2013,Y,Y,Y,Y,,,,,,,,,,,,Y,,,,,,,,Y,,Y,"Adults, Larvae","IR, LC","M, DNA, PCR",,"An concolor, An dureni, An mortiauxi","Nsibu CN, Mumba DN, Mesia GK, Bobanga TL, Manianga CP, Mbo CM, Mampunza SM, Tona GL (2015). Malaria epidemic outbreaks in the Democratic Republic of Congo, part I: cross-sectional survey in Mweka District. MalariaWorld Journal, 6: 11; Rahm U & Vermylen M (1966). Répertoire et répartition des Anophèles de la République Démocratique du Congo. Estratto dalla Rivista di Malariologia, XLV: 1-3",23,23.8667,-4.8333,540,meters
Democratic Republic of the Congo,Province Orientale,Tshopo,Wanie Rukala,Google Earth,2003,2004,Y,Y,,Y,,,,,,,,,,,,,,,,,,,,,,,"Adults, Larvae","PSC, HLC, LC","M, PCR",,,"Watsenga TN, Manzambi EZM, Punga K, Mosibono, Maleba R, Dotson E, Hawley W, Tshiefu A, Muyembe JJT (2004). Taxonomic status of M and S forms of Anopheles gambaie s.s. in Democratic Republic of Congo. Unpublished report of INRB",25,25.5291,0.1949,430,meters
Democratic Republic of the Congo,Maniema,Area under 1st level administration,Namoya,Other,2012,2012,Y,Y,,,Y,,,,Y,,,,,,,,,,,,,,,,,,Adults,"IR, HBC, PSC","M, PCR",,,Namoya Gold Mine Project (2012). Mosquito analysis report and recommendations. Unpublished report,27,27.5578,-4.0199,734,meters
Democratic Republic of the Congo,Sud-Kivu,Area under 1st level administration,Katana,GPS,1956,2014,Y,Y,,,,,,,,,,,,,,,,,,,,,,,,,Adults,"PSC, IR","M, PCR",,An dureni,"Rahm U & Vermylen M (1966). Répertoire et répartition des Anophèles de la République Démocratique du Congo. Estratto dalla Rivista di Malariologia, XLV: 1-3; Kanza JPB, El Fahime E, Alaoui S, Essassi EM, Brooke B, Malafu AN, Tezzo FW (2013). Pyrethroid, DDT and malathion resistance in the malaria vector Anopheles gambiae from the Democratic Republic of Congo. Transactions of the Royal Society of Tropical Medicine & Hygiene, 107: 8-14; Fornadel C & Norris L (2015). President’s Malaria Initiative Country Insecticide Susceptibility Summaries. USAID, April 2015",28,28.8314,-2.225,1550,meters
Burundi,Bubanza,Gihanga,Gihanga Mulira,Combination,1981,1989,Y,Y,,,Y,,,,Y,,,,,,,,Y,,,,,,,Y,Y,,Adults,"HBC, PSC, IR","M, Chromosomal Inversion Polymorphism",,,"Coosemans M, Wery M, Storme B, Hendrix L, Mfisi B (1984). Epidemiologie du paludisme dans la plaine de la Ruzizi, Burundi. Annales de la Société Belge de Médecine Tropicale, 64: 135-158; Coosemans MH (1985). Comparaison de l'endemie malarienne dans une zone de riziculture et dans une zone de culture de coton dans la plaine de la Ruzizi, Burundi. Annales de la Société Belge de Médecine Tropicale, 65: 187-200; Coosemans M, Petrarca V, Barutwango M, Coluzzi M (1989). Species of Anopheles gambiae complex and chromosomal polymorphism in a rice-growing area of the Rusizi Valley (Republic of Burundi). Parassitologia, 31: 113-122; Coosemans M (1991). Développement d'une stratégie de lutte contre le paludisme dans une région rizicole au Burundi. Bulletin et Mémoires de l'Académie Royale de Médecine de Belgique, 146: 157-165",29,29.3175,-3.2068,822,meters
Uganda,Bundibugyo,Bwamba,Spring Savanna,GPS,1995,1995,Y,Y,,,,,,Y,,,,,,,,,,,,,,,,,,,Larvae,LC,"M, Unknown",,,"Charlambous M, Townson H, Harbach RE, Mukwaya LG (1999). Electrophoretic and DNA identification of Anopheles bwambae and A. Gambiae (Diptera: Culicidae) in western Uganda. Bulletin of Entomological Research, 89: 111–117",30,30.1614,0.8348,848,meters
South Sudan,Central Equatoria,Bahr Al Jabal,Juba Gumba,Geonames,1985,1985,Y,Y,,,Y,,,,,,,,,,,,,,,,,,,,,,Adults,IR,"M, CBS",,,"Petrarca V, Nugud AD, Ahmed MA, Haridi AM, Di Deco MA, Coluzzi M (2000). Cytogenetics of the Anopheles gambiae complex in Sudan, with special reference to An. arabiensis: relationships with East and West African populations. Medical & Veterinary Entomology, 14: 149-164",31,31.6251,4.8141,467,meters
Uganda,Lira,Erute,Adekokwok,GeoNames,2012,2013,Y,Y,,,,,,,Y,,,,,,,,,,,,,,,,,,"Adults, Larvae","HLC, PSC, LTC, LC","M, Unknown",,,Okia M (2013). Unpublished data from entomological monitoring at IRS districts 2012-2013,32,32.9666,2.25,1110,meters
Tanzania,Mwanza,Missungwi,"Sengerema, Nyamazugo",Other,1988,1998,Y,Y,,,Y,,,,,,,,,,,,,,,,,,,,,,Adults,IR,"M, DNA",,,"MosquitoMap. (2009). Data were obtained from records held in the following institutions and accessed through the MosquitoMap data portal (http://www.mosquitomap.org) on 31st July 2009: Walter Reed Biosystematics Unit (WRAIR, Division of Entomology); Instituto Nacional de Biodiversidad, National Institute for Communicable Diseases; British Museum of Natural History, Entomology Department, London; The School of Integrative Biology, University of Queensland; United States Forces, Korea; VectorMap (2013). URL: http://vectormap.nhm.ku.edu/vectormap/",33,33,-2.8333,1151,meters
Kenya,Western,Vihiga,Muluhoro,GPS,2011,2013,Y,Y,,,Y,,,,Y,,,,,,,,,,,,,,,,,,Adults,"IR, Exit traps, OS","M, DNA, PCR",,,"Ndenga BA, Mulaya NL, Musaki SK, Shiroko JN, Dongus S, Fillinger U (2016). Malaria vectors and their blood-meal sources in an area of high bed net ownership in the western Kenya highlands. Malaria Journal, 15: 76",34,34.5808,0.0371,1488,meters
Kenya,Rift Valley,Nandi North,Kosirai,GeoNames,2000,2000,Y,Y,,,,,,,,,,,,,,,,,,,,,,,,,Adults,PSC,"M, DNA, PCR",,,"Minakawa N, Sonye G, Mogi M, Githeko A, Yan G (2002). The effects of climatic factors on the distribution and abundance of malaria vectors in Kenya. Journal of Medical Entomology, 39: 833-841",35,35.1333,0.2667,1986,meters
Kenya,Rift Valley,Kajiado,Kitengela 1,GPS,2008,2008,Y,Y,,,Y,,,,,,,,,,,,,,,,,,,,,,Larvae,LC,"M, PCR",,,Minakawa N (2009). Vector data. Unpublished work,36,36.9546,-1.4952,1565,meters
Tanzania,Kilimanjaro,Moshi Urban,KCMUCo,Google Earth,2008,2012,Y,Y,,,Y,,,,,,,,,,,,,,,,,,,,,,Adults,"PSC, Exit traps","M, PCR",,An nigerrimus,"Kitau J, Oxborough R, Kaye A, Chen-Hussey V, Isaacs E, Matowo J, Kaur H, Magesa SM, Mosha F, Rowland M, Logan J (2014). Laboratory and experimental hut evaluation of a long-lasting insecticide treated blanket for protection against mosquitoes. Parasites & Vectors, 7: 129; Oxborough RM, Kitau J, Jones R, Feston E, Matowo J, Mosha FW, Rowland MW (2014). Long-lasting control of Anopheles arabiensis by a single spray application of micro-encapsulated pirimiphos-methyl (Actellic® 300 CS). Malaria Journal, 13: 37; Malima RC, Oxborough RM, Tungu PK, Maxwell C, Lyimo I, Mwingira V, Mosha FW, Matowo J, Magesa SM, Rowland MW (2009). Behavioural and insecticidal effects of organophosphate-, carbamate- and pyrethroid-treated mosquito nets against African malaria vectors. Medical & Veterinary Entomology, 23: 317-325; Kitau J, Oxborough R, Matowo J, Mosha F, Magesa SM, Rowland M (2014). Indoor residual spraying with microencapsulated DEET repellent (N, N-diethyl-m-toluamide) for control of Anopheles arabiensis and Culex quinquefasciatus. Parasites & Vectors, 7: 446",37,37.3295,-3.3209,907,meters
Tanzania,Tanga,Muheza,Bulwa,Combination,1972,1980,Y,Y,,,,,,,Y,,,,,,,,,,,,,,,,,,Adults,"IR, PSC","M, Unknown",,,"Matola YG, White GB, Magayuka SA (1987). The changed pattern of malaria endemicity and transmission at Amani in the eastern Usambara mountains, north-eastern Tanzania. Journal of Tropical Medicine & Hygiene, 90: 127-134",38,38.6333,-5,923,meters
Kenya,Coast,Malindi,Control EZ 81,Other,1994,1995,Y,Y,,,Y,,Y,,Y,,,,,,,,,,,,,,,,,,Adults,PSC,"M, Unknown",,,"Mbogo CNM, Baya NM, Ofulla AVO, Githure JI, Snow RW (1996). The impact of permethrin-impregnated bednets on malaria vectors of the Kenyan Coast. Medical & Veterinary Entomology, 10: 251-259; unpublished data",39,39.9477,-3.3343,10,meters
Kenya,Coast,Malindi,Mbarak Chembe,Google Earth,1997,1998,Y,Y,,,Y,,Y,,Y,,,,,,,,,,,,,,,,,,Adults,PSC,"M, PCR",,,"Mbogo CM, Mwangangi JM, Nzovu J, Gu W, Yan G, Gunter JT, Swalm C, Keating J, Regens JL, Shililu JI, Githre JI, Beier JC (2003). Spatial and temporal heterogeneity of anopheles mosquitoes and Plasmodium falciparum transmission along the Kenyan coast. American Journal of Tropical Medicine & Hygiene, 68: 735-742; Keating J, Mbogo CM, Mwangangi J, Nzovu JG, Gu V, Regens JL, Yan G, Githure JI, Beier JC (2005). Anopheles gambiae s.l. and Anopheles funestus mosquito distributions at 30 villages along the Kenyan coast. Journal of Medical Entomology, 42: 241-246; Mwangangi JM, Mbogo CM, Nzovu JG, Githure JI, Yan G, Beier JC (2003). Blood-meal analysis for anopheline mosquitoes sampled along the Kenyan coast. Journal of the American Mosquito Control Association, 19: 371-375",40,40.0843,-3.294,17,meters
Senegal,Thies,Tivaouane,Thiaye,Combination,1992,1993,Y,Y,,,Y,Y,,,Y,,,,,,,,Y,,,,,,Y,,,,Adults,"NBC, PSC, HLC","M, CBS, PCR",,,"Faye O, Gaye O, Fontenille D, Sy N, Konate L, Hebrard G, Herve JP, Trouillet J, Diallo S, Mouchet J (1995). Comparaison de la transmission du paludisme dans deux faciès épidémiologiques au Sénégal : la zone côtière sahélienne et la zone méridionale soudanienne. Dakar Médical, 40: 201-207; Faye O, Gaye O, Fontenille D, Hebrard G, Konate L, Sy N, Herve JP, Toure Y, Diallo S, Molez JF, Mouchet J (1995). La sécheresse et la baisse du paludisme dans les Niayes du Sénégal. Cahiers Santé, 5: 299-305; Konaté L, Faye O, Gaye O, Sy N, Diop A, Diouf M, Trape JF, Molez JF (1999). Zoophagie et hôtes alternatifs des vecteurs du paludisme au Sénégal. Parasite, 6: 259-267; Sy N (1994). La transmission du paludisme dans deux faciès épidémiologiques du Sénégal : la zone des Niayes et la zone soudanienne de Tambacounda. DEA FST/UCAD, Dakar, Sénégal, 52, pp. 46",-17,-17.069,14.914,8,meters
Gambia,Western,Kombo North,Wellingara,Google Earth,1976,1989,Y,Y,,,Y,,,,,,,,,,,,,,,,,,,,,,Adults,"HLC, PSC, CDC Light traps, IR","M, DNA, CBS",,,"Bryan JH (1979). Observations on the member species of the Anopheles gambiae complex in The Gambia, West Africa. Transactions of the Royal Society of Tropical Medicine & Hygiene, 73: 463-466; Lindsay SW, Alonso PL, Armstrong Schellenberg JR, Hemingway J, Adiamah JH, Shenton FC, Jawara M, Greenwood BM (1993). A malaria control trial using insecticide-treated bed nets and targeted chemoprophylaxis in a rural area of The Gambia, west Africa. 7. Impact of permethrin-impregnated bed nets on malaria vectors. Transactions of the Royal Society of Tropical Medicine & Hygiene, 87 Suppl 2: 45-51",-16,-16.6752,13.4038,23,meters
Gambia,North Bank,Upper Baddibu,Kerr Juka,Combination,2005,2005,Y,Y,,,Y,Y,,,,,,,,,,,Y,,,,Y,,Y,Y,Y,,Adults,CDC Light trap,"M, PCR",,,"Kirby MJ, Green C, Milligan PM, Sismanidis C, Jasseh M, Conway DJ, Lindsay SW (2008). Risk factors for house-entry by malaria vectors in a rural town and satellite villages in The Gambia. Malaria Journal, 7: 2",-15,-15.5538,13.5821,30,meters
Guinea,Boke,Boke,Djoumaya,GPS,2014,2014,Y,Y,Y,Y,,,,,,,,,,,,,,,,,,,,,,,"Adults, Larvae","IR, HLC, PSC, CDC Light traps, LC","M, DNA, PCR",,,"Keita K, Camara D, Barry Y, Ossè R, Wang L, Sylla M, Miller D, Leite L, Schopp P, Lawrence GG, Akogbéto M, Dotson EM, Guilavogui T, Keita M, Irish SR (2017). species identification and resistance status of Anopheles gambiae s.l. (Diptera: Culicidae) mosquitoes in Guinea. Journal of Medical Entomology, 54: 677-681",-14,-14.2479,10.8366,134,meters
Senegal,Kolda,Velingara,Kael Bessel,Combination,1998,2014,Y,Y,,,Y,,,,Y,,,,,,Y,,Y,,,,,,,,,,"Adults, Larvae","HLC, PSC, LC","M, PCR",,,"Programme National de Lutte contre le Paludisme (2011). Profil entomologique du paludisme au Senegal. Republique du Senegal, Ministere de la Sante et de la Prevention, June, 2011; PNLP (2015). National sentinel site entomology surveillance database from data collected by Vector Control Unit, LEV/PNLP Senegal",-13,-13.9832,13.2035,54,meters
Senegal,Tambacounda,Kedougou,Boundacoundi,Combination,2008,2012,Y,Y,,Y,Y,,,,Y,,,,,,,,,,,,,,Y,Y,,,Adults,"IR, HLC, Tent traps","M, PCR",,,"Sylla M, Kobylinski KC, Gray M, Chapman PL, Sarr MD, Rasgon JL, Foy BD (2010). Mass drug administration of ivermectin in south-eastern Senegal reduces the survivorship of wild-caught, blood fed malaria vectors. Malaria Journal, 9: 365; Kobylinski KC, Sylla M, Chapman PL, Sarr MD, Foy BD (2011). Ivermectin mass drug administration to humans disrupts malaria parasite transmission in Senegalese villages. American Journal of Tropical Medicine & Hygiene, 85: 3-5; Alout H, Krajacich BJ, Meyers JI, Grubaugh ND, Brackney DE, Kobylinski KC, Diclaro JW 2nd, Bolay FK, Fakoli LS, Diabaté A, Dabiré RK, Bougma RW, Foy BD (2014). Evaluation of ivermectin mass drug administration for malaria transmission control across different West African environments. Malaria Journal, 13: 417",-12,-12.3376,12.52,176,meters
Sierra Leone,Southern,Bo,Bo,Encarta,1912,1992,Y,Y,,,,,,,Y,,,,,,,,,Y,,Y,,,,Y,Y,,"Adults, Larvae","HLC, OS, IR, PSC, Exit traps, CDC Light traps LC","M, CBS, DNA",,"An obscurus, An flavicosta, An barberellus","Simpson JJ (1913). Entomological research in British West Africa. IV. Sierra Leone. Bulletin of Entomological Research, 4: 151-190; Kumm HW (1929). The geographical distribution of the malaria carrying mosquitoes: A collection of recorded material in the literature and in personal communications to the author. American Journal of Hygiene, 10: 1-154; op cit collections by JJ Simpson; Petersen E, Marbiah NT, Magbiti E, Lines JD, Maude GH, Høgh B, Curtis C, Greenwood B, Bradley D (1993). Controlled trial of lambda-cyhalothrin impregnated bed nets and Maloprim chemosuppression to control malaria in children living in a holoendemic area of Sierra Leone, west Africa. Study design and preliminary results. Parassitologia, 35: 81-85; Bockarie MJ, Service MW, Barnish G, Maude GH, Greenwood BM (1994). Malaria in a rural area of Sierra Leone. III. Vector ecology and disease transmission. Annals of Tropical Medicine & Parasitology, 88: 251-262",-11,-11.735,7.967,95,meters
Guinea,Faranah,Kissidougou,Keredou,GPS,2014,2014,Y,Y,Y,Y,,,,,,,,,,,,,,,,,,,,,,,"Adults, Larvae","IR, HLC, PSC, CDC Light traps, LC","M, DNA, PCR",,,"Keita K, Camara D, Barry Y, Ossè R, Wang L, Sylla M, Miller D, Leite L, Schopp P, Lawrence GG, Akogbéto M, Dotson EM, Guilavogui T, Keita M, Irish SR (2017). species identification and resistance status of Anopheles gambiae s.l. (Diptera: Culicidae) mosquitoes in Guinea. Journal of Medical Entomology, 54: 677-681",-10,-10.0695,9.2089,532,meters
Liberia,Nimba,Saclepea-Mah,Kpain town,Google Earth,1953,1967,Y,Y,,,,,,,Y,,,,,,,,,Y,,,,,,Y,Y,Y,"Adults, Larvae","Light traps, IR, HLC, LC","M, Cross-mating",,"An obscurus, An cinctus, An barberellus, An hargreavesi","Peters W (1956). The mosquitoes of Liberia (Diptera: Culicidae). A general survey. Bulletin of Entomological Research, 47: 525-531; Guttuso C (1960). Malaria pre-eradication project Kpain (Lib 16). World Health Organization, unpublished document, Geneva Archives; Davidson G (1966). Distribution Records of Member Species of the Anopheles Gambiae Complex (identifications Up to May 1966). WHO/Mal/66.570; Coz J (1973). Contribution a l’etude du complexe A. gambiae repartition geographique et saisonnière en Afrique de l'Ouest. Cahiers ORSTOM, Série Entomologie Médicale et Parasitologie, 11: 3-31",-9,-9.0778,7.0993,284,meters
Côte d'Ivoire,18 Montagnes,Danane,Gbatta,Encarta,2001,2002,Y,Y,Y,,,,,,Y,Y,,,,,Y,,Y,,,,,,,Y,Y,Y,Adults,HBC,"M, PCR",An nili s.s.,,"Adja AM, N'goran EK, Koudou BG, Dia I, Kengne P, Fontenille D, Chandre F (2011). Contribution of Anopheles funestus, An. gambiae and An. nili (Diptera: Culicidae) to the perennial malaria transmission in the southern and western forest areas of Côte d'Ivoire. Annals of Tropical Medicine & Parasitology,  105: 13-24; Koffi AA, Ahoua Alou PL, Adja AM, Konan YL, Manga L, Bagayoko M, Bitsindou P (2009). Profil entomologique du paludisme en Côte d’Ivoire 1956-2009. WHO/ANVR/2009; digitzed from maps provided in report to nearest village",-8,-8.251,6.934,254,meters
Mali,Koulikoro,Kati,Doneguebougou,Encarta,1985,2007,Y,Y,Y,Y,Y,,,,Y,,,,,,,,,,,,,,,,,,Adults,IR,"M, CBS, PCR",,,"Touré YT, Petrarca V, Traoré SF, Coulibaly A, Maiga HM, Sankaré O, Sow M, Di Deco MA, Coluzzi M (1998). The distribution and inversion polymorphism of chromosomally recognized taxa of the Anopheles gambiae complex in Mali, West Africa. Parassitologia, 40: 477 - 511; Dicko A, Sagara I, Diemert D, Sogoba M, Niambele MB, Dao A, Dolo G, Yalcouye D, Diallo DA, Saul A, Miller LH, Toure YT, Klion AD, Doumbo OK (2007). Year-to-year variation in the age-specific incidence of clinical malaria in two potential vaccine testing sites in Mali with different levels of malaria transmission intensity. American Journal of Tropical Medicine & Hygiene, 77: 1028-1033; Sangare D (1999). Plasmodium falciparum transmission by the Anopheles gambiae complex and An. funestus in Doneguebougou. Durban, South Africa. 86; Dao A, Sissoko IM, Diallo M, Adamou A, Yaro AS, Dolo GM, Dicko A, Traore SF, Doumbo OK (2005). Malaria transmission entomologic parameters on a malaria vaccine trial site and its surrounding villages in a Sudan savannah area of Mali. American Journal of Tropical Medicine & Hygiene, 73: 424; Yaro AS, Dao A, Adamou A, Crawford JE, Ribeiro JM, Gwadz R, Traoré SF, Lehmann T (2006).  The distribution of hatching time in Anopheles gambiae. Malaria Journal, 5: 19; Horton AA, Lee Y, Coulibali CA, Radhbrook VK, Cornel AJ, Lanzaro GC, Luckhart S (2010). indentification of three single nucleotide polymorphisms in Anopheles gambiae immune signaling genes that are associated with natural Plasmodium falciparum infection. Malaria Journal, 9: 160",-7,-7.984,12.801,419,meters
Mali,Segou,Segou,Filawere,Combination,1984,1984,Y,Y,,,Y,,,,,,,,,,,,,,,,,,,,,,"Adults, Larvae","HBC, IR, LC","M, CBS",,,"Toure YT (1991). The Anopheles gambiae complex in West Africa. Science in Africa, Achievements and prospects, pp. 55-75. American Association for the Advancement of Science, AAAS Publication 91–43S. AAAS, Washington, DC. ",-6,-6.5447,14.0049,289,meters
Burkina Faso,Cascades,Leraba,Douna,Encarta,1966,1967,Y,Y,,,,,,,Y,,,,,,,,,,,,,,,,,,"Adults, Larvae","IR, HBC, LC","M, Unknown",,,"Brengues J, Coz J (1973). Quelques aspects fondamentaux de la biologie d'Anopheles gambiae Giles (Sp. A.) et d’Anopheles funestus giles, en zone de savane humide d’Afrique de l’Ouest. Cahiers ORSTOM, Série Entomologie Médicale et Parasitologie, 11: 107-126",-5,-5.116,10.616,311,meters
Burkina Faso,Cascades,Comoe,Dianga,GPS,2005,2005,Y,Y,,Y,,,,,,,,,,,,,,,,,,,,,,,Adults,IR,"M, DNA",,,"Costantini C, Ayala D, Guelbeogo WM, Pombi M, Some CY, Bassole IH, Ose K, Fotsing JM, Sagnon N, Fontenille D, Besansky NJ, Simard F (2009). Living at the edge: biogeographic patterns of habitat segregation conform to speciation by niche expansion in Anopheles gambiae. BMC Ecology, 9: 16",-4,-4.2209,10.6217,330,meters
Burkina Faso,Sud-ouest,Poni,Gaoua,Encarta,1948,2006,Y,Y,Y,Y,Y,,,,Y,,,,,,Y,,Y,,,,,,Y,,,,"Adults, Larvae","IR, PSC, IR, LC","M, Cross-mating, PCR",,"An domicolus, An pretoriensis","Jonchere H & Pfister R (1951). Enquetes malariologiques en Haute-Volta, Cote d'Ivoire et Guinee (Janvier-Mars 1951). Bulletin de la Société de Pathologie Exotique, 44: 826-838; Holstein MH (1951). Note sur l'epidemiologique du paludisme en Afrique-Occidentale francaise. Bulletin of the World Health Organization, 4: 463-473; Coz J (1973). Contribution a l’etude du complexe A. gambiae repartition geographique et saisonnière en Afrique de l'Ouest. Cahiers ORSTOM, Série Entomologie Médicale et Parasitologie, 11: 3-31; Davidson G (1966). Distribution Records of Member Species of the Anopheles Gambiae Complex (identifications Up to May 1966). WHO/Mal/66.570; Diabaté A, Brengues C, Baldet T, Dabiré KR, Hougard JM, Akogbeto M, Kengne P, Simard F, Guillet P, Hemingway J, Chandre F (2004).The spread of the Leu-Phe kdr mutation through Anopheles gambiae complex in Burkina Faso: genetic introgression and de novo phenomena. Tropical Medicine & International Health, 9: 1267-1273; Dabiré KR, Diabaté A, Namontougou M, Djogbenou L, Kengne P, Simard F, Bass C, Baldet T (2009). Distribution of insensitive acetylcholinesterase (ace-1R) in Anopheles gambiae s.l. populations from Burkina Faso (West Africa). Tropical Medicine & International Health, 14: 396-403; Dabiré KR, Diabaté A, Namountougou M, Toé KH, Ouari A, Kengne P, Bass C, Baldet T (2009). Distribution of pyrethroid and DDT resistance and the L1014F kdr mutation in Anopheles gambiae s.l. from Burkina Faso (West Africa). Transactions of the Royal Society of Tropical Medicine & Hygiene, 103: 1113-1120",-3,-3.1737,10.3245,301,meters
Burkina Faso,Nord,Passore,Doure,GPS,2005,2005,Y,Y,Y,Y,Y,,,,,,,,,,,,,,,,,,,,,,Adults,IR,"M, DNA",,,"Costantini C, Ayala D, Guelbeogo WM, Pombi M, Some CY, Bassole IH, Ose K, Fotsing JM, Sagnon N, Fontenille D, Besansky NJ, Simard F (2009). Living at the edge: biogeographic patterns of habitat segregation conform to speciation by niche expansion in Anopheles gambiae. BMC Ecology, 9: 16",-2,-2.1461,12.886,326,meters
Ghana,Brong Ahafo,Kintampo,Dawadawa 2,GPS,2014,2014,Y,Y,Y,Y,,,,,,,,,,,,,,,,,,,,,,,Larvae,LC,"M, DNA, PCR",,,"Akorli J, Gendrin M, Pels NA, Yeboah-Manu D, Christophides GK, Wilson MD (2016). Seasonality and locality affect the diversity of Anopheles gambiae and Anopheles coluzzii midgut microbiota from Ghana. PLoS One, 11: e0157529",-1,-1.5671,8.3602,124,meters
Ghana,Greater Accra,Accra,Opeibea,GPS,2014,2014,Y,Y,Y,Y,,,,,,,,,,,,,,,,,,,,,,,Larvae,LC,"M, DNA, PCR",,,"Akorli J, Gendrin M, Pels NA, Yeboah-Manu D, Christophides GK, Wilson MD (2016). Seasonality and locality affect the diversity of Anopheles gambiae and Anopheles coluzzii midgut microbiota from Ghana. PLoS One, 11: e0157529",0,-0.1799,5.599,46,meters
Burkina Faso,Est,Tapoa,Tanbaga,GPS,2005,2005,Y,Y,,Y,Y,,,,,,,,,,,,,,,,,,,,,,Adults,IR,"M, DNA",,,"Costantini C, Ayala D, Guelbeogo WM, Pombi M, Some CY, Bassole IH, Ose K, Fotsing JM, Sagnon N, Fontenille D, Besansky NJ, Simard F (2009). Living at the edge: biogeographic patterns of habitat segregation conform to speciation by niche expansion in Anopheles gambiae. BMC Ecology, 9: 16",1,1.7419,11.7951,262,meters
Benin,Oueme,Adjara,Adjara,Google Earth,2009,2012,Y,Y,Y,,,,,,,,,,,,,,,,,,,,,,,,Adults,"Exit traps, PSC, HBC","M, PCR",,,"Ossè R, Gnanguenon V, Sèzonlin M, Aïkpon R, Padonou G, Yadouléton A, Akogbéto MC (2012). Relationship between the presence of Kdr and Ace-1 mutations and infection with Plasmodium falciparum in Anopheles gambiae s.s. in Benin. Journal of Parasitology & Vector Biology, 4: 31-39; Sandeu MM, Moussiliou A, Moiroux N, Padonou GG, Massougbodji A, Corbel V, Ndam NT (2012). Optimized Pan-species and speciation duplex real-time PCR assays for Plasmodium parasites detection in malaria vectors. PLoS One, 7:e52719",2,2.6667,6.5333,24,meters
Nigeria,Lagos,Mushin,Bariga,Combination,2007,2010,Y,Y,Y,,Y,,,,,,,,,,,,,,,,,,,,,,Larvae,LC,"M, PCR",,,"Oduola AO, Olojede JB, Ashiegbu CO, Adeogun AO, Otubanjo OA, Awolola TS (2010). High level of DDT resistance in the malaria mosquito: Anopheles gambiae s.l. from rural, semi urban and urban communities in Nigeria. Journal of Rural & Tropical Public Health, 9: 114-120; Oduola AO, Idowu ET, Oyebola MK, Adeogun AO, Olojede JB, Otubanjo OA, Awolola TS (2012). Evidence of carbamate resistance in urban population of Anopheles gambiae s.s. Mosquitoes resistant to DDT and deltamethrin insecticides in Lagos, South-Western Nigeria. Parasite & Vectors, 5: 116",3,3.3834,6.5338,11,meters
Nigeria,Kebbi,Bunza,Maidahini,Encarta,1956,1965,Y,Y,,,,,,,,,,,,,,,,,,,,,,,,,Adults,IR,"M, Cross-mating",,,Davidson G (1966). Distribution Records of Member Species of the Anopheles Gambiae Complex (identifications Up to May 1966). WHO/Mal/66.570,4,4.033,12.134,185,meters
Nigeria,Ondo,Akure,Kajola,GPS,1999,1999,Y,Y,,,Y,,,,,,,,,,,,,,,,,,,,,,"Adults, Larvae",LC,"M, PCR",,,"Onyabe DY & Conn JE (2001). The distribution of two major malaria vectors, Anopheles gambiae and Anopheles arabiensis, in Nigeria. Memórias do Instituto Oswaldo Cruz, 96: 1081-1084",5,5.38,7.21,333,meters
Niger,Tahoua,Madaoua,Fararatt,Geonames,2005,2007,Y,Y,Y,Y,Y,,,,,,,,,,,,,,,,,,,,,,Adults,"PSC, HBC","M, PCR",,,"Czeher C, Labbo R, Arzika I, Duchemin JB (2008). Evidence of increasing Leu-Phe knockdown resistance mutation in Anopheles gambiae from Niger following a nationwide long-lasting insecticide-treated nets implementation. Malaria Journal, 7: 189; Czeher C, Labbo R, Vieville G, Arzika I, Bogreau H, Rogier C, Diancourt L, Brisse S, Ariey F, Duchemin JB (2010). Population genetic structure of Anopheles gambiae and Anopheles arabiensis in Niger. Journal of Medical Entomology, 47: 355-366",6,6.2618,14.0188,353,meters
Nigeria,Kaduna,Igabi,Anguwun Maaza,Combination,1967,1971,Y,Y,,,Y,,,,,,,,,,,,,,,,,,,,,,"Adults, Larvae","CDC Light traps, Monks wood traps, HBC, Exit traps, PSC, LC","M, Cross-mating",,,"Service MW (1969). A dry-season of the anopheles gambiae complex around Kaduna, Northern Nigeria. WHO/VBC/69.132, WHO/MAL/69.690, pp. 8; White GB & Rosen P (1972). The ecology of one Anopheles gambiae complex in a savanna area at Kaduna, Nigeria, during the transition from wet to dry season. WHO/VBC/72.392, WHO/MAL/72.781, pp. 18; Pates HV (2002). Zoophilic and anthropophilic behaviour in the Anopheles gambiae complex. Thesis submitted for the degree of Doctor of Philosophy to the University of London, April 2002, pp. 206; op cit report by White & Rosen (1973)",7,7.388,10.4998,589,meters
Nigeria,Jigawa,Garki,Jirima,Encarta,1970,1973,Y,Y,,,Y,,,,,,,,,,,,,,,,,,,,,,Adults,"IR, PSC","M, Unknown",,,"Pates HV (2002). Zoophilic and anthropophilic behaviour in the Anopheles gambiae complex. Thesis submitted for the degree of Doctor of Philosophy to the University of London, April 2002, pp. 206; op cit report by Coluzzi et al. (1972); Coluzzi M, Sabatini A, Petrarca V, Di Deco MA (1979). Chromosomal differentiation and adaptation to human environments in the Anopheles gambiae complex. Transactions of the Royal Society of Tropical Medicine & Hygiene, 73: 483 - 497; Taylor CE, Toure YT, Coluzzi M, Petrarca V (1993). Effective population size and persistence of Anopheles arabiensis during the dry season in west Africa. Medical & Veterinary Entomology, 7: 351-357",8,8.882,12.318,396,meters
Cameroon,Ouest,Menoua,Santchou,Encarta,1997,2006,Y,Y,Y,Y,,,,,Y,,,,,,Y,,Y,,,,,Y,,Y,Y,Y,"Adults, Larvae","HLC, PSC, LC","M, DNA, PCR",,,"Wondji C, Frédéric S, Petrarca V, Etang J, Santolamazza F, Della Torre A, Fontenille D (2005). Species and populations of the Anopheles gambiae complex in Cameroon with special emphasis on chromosomal and molecular forms of Anopheles gambiae s.s. Journal of Medical Entomology, 42: 998-1005; Tchuinkam T, Simard F, Lélé-Defo E, Téné-Fossog B, Tateng-Ngouateu A, Antonio-Nkondjio C, Mpoame M, Toto JC, Njiné T, Fontenille D, Awono-Ambéné HP (2010). Bionomics of Anopheline species and malaria transmission dynamics along an altitudinal transect in Western Cameroon. BMC Infectious Diseases, 10: 119; Reimer L, Fondjo E, Patchoké S, Diallo B, Lee Y, Ng A, Ndjemai HM, Atangana J, Traore SF, Lanzaro G, Cornel AJ (2008). Relationship between kdr mutation and resistance to pyrethroid and DDT insecticides in natural populations of Anopheles gambiae. Journal of Medical Entomology, 45: 260-266; Ndjemaï HN, Patchoké S, Atangana J, Etang J, Simard F, Bilong CF, Reimer L, Cornel A, Lanzaro GC, Fondjo E (2009). The distribution of insecticide resistance in Anopheles gambiae s.l. populations from Cameroon: an update. Transactions of the Royal Society of Tropical Medicine & Hygiene, 103: 1127-1138; della Torre A, Tu ZJ, Petrarca V (2005). On the distribution and genetic differentiation of Anopheles gambiae s.s. molecular forms. Insect Biochemistry & Molecular Biology, 35: 755-769; op cit report by Wondji et al. (2005)",9,9.9,5.301,854,meters
Cameroon,Ouest,Menoua,Dschang,GPS,1948,2007,Y,Y,Y,Y,,,,,Y,Y,,,,,Y,Y,Y,Y,,Y,Y,Y,Y,Y,Y,Y,"Adults, Larvae","HBC, IR, OS, PSC, Bednet traps, CDC Light traps, LC","M, DNA, PCR",,"An obscurus, An pretoriensis, An namibiensis","Rageau J (1953). Notice pour la carte de Répartition géographique des anophèles au Cameroun Français (1952). Yaoundé : ORSTOM, 1953, 5 p.; Hamon J, Adam JP, Grjebine A (1956). Observations sur la répartition et le comportement des anophèles de l'Afrique-Equatoriale Française, du Cameroun et de l'Afrique Occidentale. Bulletin of World Health Organization, 15: 549-591; Adam JP & Mouchet J (1957). Répartition géographique des anophèles au Cameroun Français. Yaoundé : IRCAM, 1957, 10 p.; Mouchet J, Gariou J, Hamon J (1960). Note faunistique sur les moustiques des montagnes de l'ouest-Cameroun, presence de neuf formes de Culicidae nouvelles pour le Cameroun. Bulletin de l'IFAN, 22: 207-216; Manga L, Mbingue S, Etoundi MN, Ngollo M (1997). Anopheles namibiensis is anthropophilic and widespread in Cameroon. Medical & Veterinary Entomology, 11: 409; Antonio-Nkondjio C, Kerah CH, Simard F, Awono-Ambene P, Chouaibou M, Tchuinkam T, Fontenille D (2006). Complexity of the malaria vectorial system in Cameroon: contribution of secondary vectors to malaria transmission. Journal of Medical Entomology, 43: 1215-1221; Ayala D, Costantini C, Ose K, Kamdem GC, Antonio-Nkondjio C, Agbor JP, Awono-Ambene P, Fontenille D, Simard F (2009). Habitat suitability and ecological niche profile of major malaria vectors in Cameroon. Malaria Journal, 8: 307; Wondji C, Frédéric S, Petrarca V, Etang J, Santolamazza F, Della Torre A, Fontenille D (2005). Species and populations of the Anopheles gambiae complex in Cameroon with special emphasis on chromosomal and molecular forms of Anopheles gambiae s.s. Journal of Medical Entomology, 42: 998-1005; Wondji C, Simard F, Fontenille D (2002). Evidence for genetic differentiation between the molecular forms M and S within the Forest chromosomal form of Anopheles gambiae in an area of sympatry. Insect Molecular Biology, 11: 11-19; Tchuinkam T, Simard F, Lélé-Defo E, Téné-Fossog B, Tateng-Ngouateu A, Antonio-Nkondjio C, Mpoame M, Toto JC, Njiné T, Fontenille D, Awono-Ambéné HP (2010). Bionomics of Anopheline species and malaria transmission dynamics along an altitudinal transect in Western Cameroon. BMC Infectious Diseases, 10: 119; Ayala D, Costantini C, Ose K, Kamdem GC, Antonio-Nkondjio C, Agbor JP, Awono-Ambene P, Fontenille D, Simard F (2009). Habitat suitability and ecological niche profile of major malaria vectors in Cameroon. Malaria Journal, 8: 307; della Torre A, Tu ZJ, Petrarca V (2005). On the distribution and genetic differentiation of Anopheles gambiae s.s. molecular forms. Insect Biochemistry & Molecular Biology, 35: 755-769; op cit report by Wondji et al. (2005); della Torre A, Fanello C, Akogbeto M, Dossou-yovo J, Favia G, Petrarca V, Coluzzi M (2001). Molecular evidence of incipient speciation within Anopheles gambiae s.s. in West Africa. Insect Molecular Biology, 10: 9-18",10,10.0806,5.4142,1454,meters
Cameroon,Adamaoua,Mayo-Banyo,Mayo Darlé,GPS,1998,2007,Y,Y,,Y,,,,,,,,,,,,,,,,,,,,,,,Adults,PSC,"M, PCR",,,"Ayala D, Costantini C, Ose K, Kamdem GC, Antonio-Nkondjio C, Agbor JP, Awono-Ambene P, Fontenille D, Simard F (2009). Habitat suitability and ecological niche profile of major malaria vectors in Cameroon. Malaria Journal, 8: 307; Simard F, Ayala D, Kamdem GC, Pombi M, Etouna J, Ose K, Fotsing JM, Fontenille D, Besansky NJ, Costantini C (2009). Ecological niche partitioning between Anopheles gambiae molecular forms in Cameroon: the ecological side of speciation. BMC Ecology, 9: 17",11,11.553,6.5119,1153,meters
Cameroon,Adamaoua,Djerem,Djambala,GPS,1998,2007,Y,Y,,Y,Y,,,,Y,Y,,,,,,,,,,,,,,,,,Adults,PSC,"M, PCR",,,"Ayala D, Costantini C, Ose K, Kamdem GC, Antonio-Nkondjio C, Agbor JP, Awono-Ambene P, Fontenille D, Simard F (2009). Habitat suitability and ecological niche profile of major malaria vectors in Cameroon. Malaria Journal, 8: 307; Simard F, Ayala D, Kamdem GC, Pombi M, Etouna J, Ose K, Fotsing JM, Fontenille D, Besansky NJ, Costantini C (2009). Ecological niche partitioning between Anopheles gambiae molecular forms in Cameroon: the ecological side of speciation. BMC Ecology, 9: 17",12,12.2076,6.5908,961,meters
Cameroon,Adamaoua,Vina,Tekel,GPS,1998,2007,Y,Y,Y,Y,Y,,,,Y,Y,,,,,,,,,,,,,,,,,Adults,PSC,"M, PCR",,,"Ayala D, Costantini C, Ose K, Kamdem GC, Antonio-Nkondjio C, Agbor JP, Awono-Ambene P, Fontenille D, Simard F (2009). Habitat suitability and ecological niche profile of major malaria vectors in Cameroon. Malaria Journal, 8: 307; Simard F, Ayala D, Kamdem GC, Pombi M, Etouna J, Ose K, Fotsing JM, Fontenille D, Besansky NJ, Costantini C (2009). Ecological niche partitioning between Anopheles gambiae molecular forms in Cameroon: the ecological side of speciation. BMC Ecology, 9: 17",13,13.1737,6.8058,930,meters
Cameroon,Extreme-Nord,Mayo-Kani,Moussourtouk,GPS,1998,2007,Y,Y,,Y,Y,,,,Y,Y,,,,,,,,,,,,,,,,,Adults,PSC,"M, PCR",,,"Ayala D, Costantini C, Ose K, Kamdem GC, Antonio-Nkondjio C, Agbor JP, Awono-Ambene P, Fontenille D, Simard F (2009). Habitat suitability and ecological niche profile of major malaria vectors in Cameroon. Malaria Journal, 8: 307; Simard F, Ayala D, Kamdem GC, Pombi M, Etouna J, Ose K, Fotsing JM, Fontenille D, Besansky NJ, Costantini C (2009). Ecological niche partitioning between Anopheles gambiae molecular forms in Cameroon: the ecological side of speciation. BMC Ecology, 9: 17",14,14.2364,10.3416,456,meters
Cameroon,Extreme-Nord,Mayo-Danay,Simatou,Other,1998,2007,Y,Y,,Y,Y,,,,Y,Y,,,,,,,,,,,,,,,,,Adults,"HLC, PSC, Bednet traps, CDC Light traps, IR","M, PCR",,,"Antonio-Nkondjio C, Kerah CH, Simard F, Awono-Ambene P, Chouaibou M, Tchuinkam T, Fontenille D (2006). Complexity of the malaria vectorial system in Cameroon: contribution of secondary vectors to malaria transmission. Journal of Medical Entomology, 43: 1215-1221; Ayala D, Costantini C, Ose K, Kamdem GC, Antonio-Nkondjio C, Agbor JP, Awono-Ambene P, Fontenille D, Simard F (2009). Habitat suitability and ecological niche profile of major malaria vectors in Cameroon. Malaria Journal, 8: 307; Wondji C, Simard F, Lehmann T, Fondjo E, Samè-Ekobo A, Fontenille D (2005). Impact of insecticide-treated bed nets implementation on the genetic structure of Anopheles arabiensis in an area of irrigated rice fields in the Sahelian region of Cameroon. Molecular Ecology, 14: 3683-3693; Etang J, Manga L, Toto JC, Guillet P, Fondjo E, Chandre F (2007). Spectrum of metabolic-based resistance to DDT and pyrethroids in Anopheles gambiae s.l. populations from Cameroon. Journal of Vector Ecology, 32: 123-133; Etang J, Manga L, Chandre F, Guillet P, Fondjo E, Mimpfoundi R, Toto JC, Fontenille D (2003). Insecticide susceptibility status of Anopheles gambiae s.l. (Diptera: Culicidae) in the Republic of Cameroon. Journal of Medical Entomology, 40: 491-497",15,15,10.8667,310,meters
Chad,Logone Oriental,Bero,Kome Site B,Google Earth,2013,2013,Y,Y,Y,Y,Y,,,,,,,,,,,,,,,,,,,,,,Larvae,LC,"M, DNA, PCR",,,"Dadzie S, Appawu MA, Kerah-Hinzoumbe C, Akogbeto MC, Adimazoya M, Israel DK, Fadel AN, Williams J (2016). Species composition and insecticide resistance status of Anopheles gambiae (s.l.) (Culicidae) in Kome, southern Chad and the implications for malaria control. Parasites & Vectors, 9: 465 ",16,16.7761,8.5179,394,meters
South Sudan,Western Bahr El Ghazal,Wau,Wau,Google Earth,1930,2010,Y,Y,,,Y,,,,Y,,,,,,,,,,,,Y,Y,,Y,,,"Adults, Larvae","IR, LC","M, CBS, PCR",,"An longipalpis, An maculipalpis","Lewis DJ (1945). Observations on the distribution and taxonomy of Culicidae (Diptera) in the Sudan. Transactions of the Royal Entomological Society of London, 95: 1-26; Lewis DJ (1956). The anopheline mosquitoes of Sudan. Bulletin of Entomological Research, 47: 475-494; Digitized from map shown in Figure 9, page 489 Google Earth to nearest towns; Petrarca V, Nugud AD, Ahmed MA, Haridi AM, Di Deco MA, Coluzzi M (2000). Cytogenetics of the Anopheles gambiae complex in Sudan, with special reference to An. arabiensis: relationships with East and West African populations. Medical & Veterinary Entomology, 14: 149-164; Asma MH (2012). Investigation of Mosquitoes of Anopheles gambiae species complex (Diptera: Culicidae) using integrated cytological, Molecular and Morphological techniques. A thesis submitted for the degree of Doctor of Philosophy in the faculty of science, University of Khartoum, Sudan.",28,28,7.7,448,meters
Sudan,Sennar,Sennar,Sennar-2,Combination,1976,1976,Y,Y,,,Y,,,,,,,,,,,,,,,,,,,,,,Adults,IR,"M, CBS",,,"Petrarca V, Nugud AD, Ahmed MA, Haridi AM, Di Deco MA, Coluzzi M (2000). Cytogenetics of the Anopheles gambiae complex in Sudan, with special reference to An. arabiensis: relationships with East and West African populations. Medical & Veterinary Entomology, 14: 149-164",33,33.5648,13.5673,428,meters
Somalia,Mudug,Jariiban,Jariban,Encarta,1960,2014,Y,Y,Y,,Y,,,,Y,,,,,,,,,,,,,,,,,,"Adults, Larvae","CDC Light Traps, PSC, Exit Traps, LC","M, PCR",,,"Maffi M (1960). Malaria in the Regions of Mudugh and Migiurtinia, Somalia. Journal of Malariology, 39: 21-118; Diallo M, Amran J, Ali SD, Yasin AH, Mio JD (2014). Study of Malaria vectors behaviour in Somalia. February – March, 31st 2014. Unpublished report to WHO-EMRO",48,48.85,7.217,191,meters
Senegal,Saint-Louis,Dagana,Boundoum,Combination,1992,1994,Y,Y,,,Y,Y,,,Y,,,,,,,,Y,,,,,,Y,Y,Y,,Adults,"HLC, PSC","M, PCR",,,"Faye O, Fontenille D, Gaye O, Sy N, Molez JF, Konate L, Hebrard G, Herve JP, Trouillet J, Diallo S, Mouchet J (1995). Paludisme et riziculture dans le delta du fleuve Sénégal. Annales de la société belge de Médecine Tropicale, 75: 179-189; Konaté L, Faye O, Gaye O, Sy N, Diop A, Diouf M, Trape JF, Molez JF (1999). Zoophagie et hôtes alternatifs des vecteurs du paludisme au Sénégal. Parasite, 6: 259-267",-16,-16.2852,16.4016,3,meters
Senegal,Saint-Louis,Dagana,Mbane,Encarta,1994,1996,Y,Y,,,Y,,,,,,,,,,,,Y,,,,,,Y,Y,Y,,Adults,"HLC, IR","M, CBS, PCR",,,"Sy N (1998). Contribution a l'etude du paludisme dans la vallée du fleuve Sénégal. Impact des aménagements hydroagricoles sur la transmission dans la basse vallee au Senegal. Thèse présentée soutenue le 03 juillet 1998 devant la commission d'examen pour obtenir le grade de Docteur de Troisième Cycle de Biologie Animale, Faculté des Sciences et Techniques, Université Cheikh Anta Diop de Dakar, Senegal, pp 84; Konaté L, Faye O, Gaye O, Sy N, Diop A, Diouf M, Trape JF, Molez JF (1999). Zoophagie et hôtes alternatifs des vecteurs du paludisme au Sénégal. Parasite, 6: 259-267; Mbaye PA (1997). Impact des aménagements hydro-agricoles sur le paludisme : études menées dans des villages riverains du fleuve Sénégal et du lac de Guiers. Thesis submitted for the degree of Doctor of Pharmacy. University of Cheikh Anta Diop de Dakar, Faculty of Medicine, Pharmacy and Odonto-Stomatology. March 15, 1997; Programme National de Lutte contre le Paludisme (2011). Profil entomologique du paludisme au Senegal. Republique du Senegal, Ministere de la Sante et de la Prevention, June, 2011",-15,-15.801,16.266,9,meters
Senegal,Saint-Louis,Podor,Niaoulé,Encarta,2008,2010,Y,Y,Y,,Y,,,,Y,,,,,,,,Y,,,,,,,Y,Y,,Adults,"HLC, PSC, IR","M, PCR",,,"Ndiath MO, Sarr JB, Gaayeb L, Mazenot C, Sougoufara S, Konate L, Remoue F, Hermann E, Trape JF, Riveau G, Sokhna C (2012). Low and seasonal malaria transmission in the middle Senegal River basin: identification and characteristics of Anopheles vectors. Parasites & Vectors, 5: 21",-14,-14.984,16.666,7,meters
Mauritania,Gorgol,Kaedi,Pempediel,Other,1964,1964,Y,Y,,,,,,,,,,,,,,,Y,,,,,,Y,,,,"Adults, Larvae","PSC, HBC, NBC, ABC, LC","M, Cross-mating",,,"Garofalo V & Boucher (1964). Proramme de pre-eradication du paludisme (Raport du 2° trimestre 1964). Organization Mondiale de la Sante, Mauritanie 9: 6-20; Davidson G (1966). Distribution Records of Member Species of the Anopheles Gambiae Complex (identifications Up to May 1966). WHO/Mal/66.570",-13,-13.55,16.25,70,meters
Mauritania,Tagant,Moudjeria,Nbeika,Geonames,2011,2013,Y,Y,,,Y,,,,,,,,,,,,Y,,,,,,,,,,Adults,"IR, CDC Light traps, PSC","M, DNA, PCR",,,"Moukah MO, Ba O, Ba H, Ould Khairy ML, Faye O, Bogreau H, Simard F, Basco LK (2016). Malaria in three epidemiological strata in Mauritania. Malaria Journal, 15: 204",-12,-12.2542,17.9808,181,meters
Mauritania,Hodh El Gharbi,Tintane,Tintane,Google Earth,1963,2010,Y,Y,Y,,Y,,,,Y,,,,,,,,Y,,,,,,Y,,,,"Adults, Larvae","IR, HLC, PSC, LC","M, DNA, PCR",,,"Hamon J, Maffi M, Ouedraogo CS, Djime D (1964). Notes sur les moustiques de la République Islamique de Mauritanie (Diptera: Culicidae) (1ère partie). Bulletin de la Société Entomologique de France, 69: 233-253; Khromov A (1967). Rapport trimestriel sur l’execution du projet. Page de couverture. 1ere trimester, 1967, AFRO Region. Organisation Mondiale de la Sante, Mauritanie 9; Dia I, Ba H, Mohamed SAO, Diallo D, Lo B, Diallo M (2009). Distribution, host preference and infection rates of malaria vectors in Mauritania. Parasites & Vectors, 2: 61; Lekweiry KM, Ould Ahmedou Salem MS, Cotteaux-Lautard C, Jarjaval F, Marin-Jauffre A, Bogreau H, Basco L, Briolant S, Ould Mohamed Salem Boukhary A, Ould Brahim K, Pagès F (2016). Circumsporozoite protein rates, blood-feeding pattern and frequency of knockdown resistance mutations in Anopheles spp. in two ecological zones of Mauritania. Parasites & Vectors, 9: 268",-10,-10.1667,16.4,171,meters
Mauritania,Hodh El Gharbi,Kobenni,Kobeni,Geonames,1967,2013,Y,Y,,,Y,,,,Y,,,,,,,,Y,,,,,,Y,,,,"Adults, Larvae","IR, CDC Light traps, Exit Traps, PSC, LC","M, DNA, PCR",,,"Khromov A (1967). Rapport trimestriel sur l’execution du projet. Page de couverture. 1ere trimester, 1967, AFRO Region. Organisation Mondiale de la Sante, Mauritanie 9; Moukah O (2012). Rapport d’enquete sur la determination des facies epidemiologique du paludisme en Republique Islamique de Mauritanie. Enquete preleminaire de Novembre 2011. Instutit national de recherches en sante publique, Service de parasitologie-mycologie, pp 20; Lekweiry KM, Ould Ahmedou Salem MS, Cotteaux-Lautard C, Jarjaval F, Marin-Jauffre A, Bogreau H, Basco L, Briolant S, Ould Mohamed Salem Boukhary A, Ould Brahim K, Pagès F (2016). Circumsporozoite protein rates, blood-feeding pattern and frequency of knockdown resistance mutations in Anopheles spp. in two ecological zones of Mauritania. Parasites & Vectors, 9: 268; Moukah MO, Ba O, Ba H, Ould Khairy ML, Faye O, Bogreau H, Simard F, Basco LK (2016). Malaria in three epidemiological strata in Mauritania. Malaria Journal, 15: 204",-9,-9.3653,15.8172,200,meters
Mali,Koulikoro,Nara,Nara,Google Earth,1949,2006,Y,Y,Y,Y,Y,,,,Y,,,,,,,,,,,,,,,,,,"Adults, Larvae","OS, HBC, PSC, LC","M, PCR",,,"Hamon J, Eyraud M, Diallo B, Dyemkouma A, Bailly-Choumara H, Ouanou S (1961). Les Moustiques de la Republique du Mali. Annales de la Societe Entomologique de France, 130: 95-129; op cit report by Holsten M; Hamon J, Adam JP, Grjebine A (1956). Observations sur la répartition et le comportement des anophèles de l'Afrique-Equatoriale Française, du Cameroun et de l'Afrique Occidentale. Bulletin of World Health Organization, 15: 549-591; Sogoba N, Vounatsou P, Doumbia S, Bagayoko M, Toure MB, Sissoko IM, Traore SF, Toure YT, Smith T (2007). Spatial analysis of malaria transmission parameters in the rice cultivation area of office du Niger, Mali. American Journal of Tropical Medicine & Hygiene, 76: 1009-1015; Diuk-Wasser MA, Toure MB, Dolo G, Bagayoko M, Sogoba N, Traore SF, Manoukis N, Taylor CE (2005). Vector abundance and malaria transmission in rice-growing villages in Mali. American Journal of Tropical Medicine & Hygiene, 72: 725-731; Lee Y, Cornel AJ, Meneses CR, Fofana A, Andrianarivo AG, McAbee RD, Fondjo E, Traoré SF, Lanzaro GC (2009). Ecological and genetic relationships of the Forest-M form among chromosomal and molecular forms of the malaria vector Anopheles gambiae sensu stricto. Malaria Journal, 8: 75; Slotman MA, Tripet F, Cornel AJ, Meneses CR, Lee Y, Reimer LJ, Thiemann TC, Fondjo E, Fofana A, Traoré SF, Lanzaro GC (2007). Evidence for subdivision within the M molecular form of Anopheles gambiae. Molecular Ecology, 16: 639-649; Sogoba N, Doumbia S, Vounatsou P, Bagayoko MM, Dolo G, Traoré SF, Maïga HM, Touré YT, Smith T (2007). Malaria transmission dynamics in Niono, Mali: The effect of the irrigation systems. Acta Tropica, 101: 232-240",-7,-7.2901,15.1685,266,meters
Mali,Tombouctou,Tombouctou,Tombouctou,Encarta,1950,2014,Y,Y,Y,Y,Y,,,,Y,,,,,,,,Y,,,,Y,,,,,,"Adults, Larvae","IR, OS, LC","M, PCR",,,"Hamon J, Adam JP, Grjebine A (1956). Observations sur la répartition et le comportement des anophèles de l'Afrique-Equatoriale Française, du Cameroun et de l'Afrique Occidentale. Bulletin of World Health Organization, 15: 549-591; Fornadel C & Norris L (2015). President’s Malaria Initiative Country Insecticide Susceptibility Summaries. USAID, April 2015; Keïta M, Traoré S, Sogoba N, Dicko AM, Coulibaly B, Sacko A, Doumbia S, Traoré SF (2016). [Susceptibility status of Anopheles gambiae sensu lato to insecticides commonly used for malaria control in Mali]. Bulletin de la Société de Pathologie Exotique, 109: 39-45",-3,-3.008,16.775,266,meters
Mali,Mopti,Douentza,Douentza,GPS,1988,1988,Y,Y,,,Y,,,,,,,,,,,,,,,,,,,,,,"Adults, Larvae","HBC, IR, LC","M, CBS",,,"Toure YT (1991). The Anopheles gambiae complex in West Africa. Science in Africa, Achievements and prospects, pp. 55-75. American Association for the Advancement of Science, AAAS Publication 91–43S. AAAS, Washington, DC. ",-2,-2.9667,15,309,meters
Mali,Tombouctou,Gourma-rharous,Gossi,GPS,1988,1988,Y,Y,,,Y,,,,,,,,,,,,,,,,,,,,,,"Adults, Larvae","HBC, IR, LC","M, CBS",,,"Toure YT (1991). The Anopheles gambiae complex in West Africa. Science in Africa, Achievements and prospects, pp. 55-75. American Association for the Advancement of Science, AAAS Publication 91–43S. AAAS, Washington, DC. ",-1,-1.3333,15.8,295,meters
Mali,Kidal,Tessalit,Tessalit,Encarta,1988,1989,Y,Y,,,,,,,,,,,,,,,,,,,,,,,,,"Adults, Larvae","HBC, IR, LC","M, CBS",,,"Toure YT (1991). The Anopheles gambiae complex in West Africa. Science in Africa, Achievements and prospects, pp. 55-75. American Association for the Advancement of Science, AAAS Publication 91–43S. AAAS, Washington, DC; Julvez J, Mouchet J, Suzzoni J, Larrouy G, Fouta A, Fontenille D (1998). The anopheles of Niger. Bulletin de la Société de Pathologie Exotique, 91: 321-326",0,0.987,20.26,496,meters
Mali,Kidal,Kidal,Kidal,Encarta,1988,1989,Y,Y,,,Y,,,,,,,,,,,,,,,,,,,,,,"Adults, Larvae","HBC, IR, LC","M, CBS",,,"Toure YT (1991). The Anopheles gambiae complex in West Africa. Science in Africa, Achievements and prospects, pp. 55-75. American Association for the Advancement of Science, AAAS Publication 91–43S. AAAS, Washington, DC; Julvez J, Mouchet J, Suzzoni J, Larrouy G, Fouta A, Fontenille D (1998). The anopheles of Niger. Bulletin de la Société de Pathologie Exotique, 91: 321-326; Touré YT, Petrarca V, Traoré SF, Coulibaly A, Maiga HM, Sankaré O, Sow M, Di Deco MA, Coluzzi M (1998). The distribution and inversion polymorphism of chromosomally recognized taxa of the Anopheles gambiae complex in Mali, West Africa. Parassitologia, 40: 477 - 511",1,1.402,18.444,460,meters
Niger,Agadez,Tchighozerine,Agadez,GeoNames,1961,1963,Y,Y,,,Y,,,,,,,,,,,,,,,,,,,,,,"Adults, Larvae","Exit traps, LC","M, PCR",,An d'thali,"Julvez J, Mouchet J, Suzzoni J, Larrouy G, Fouta A, Fontenille D (1998). The anopheles of Niger. Bulletin de la Société de Pathologie Exotique, 91: 321-326; Stafford Smith DM (1981). Mosquito records from the Republic of Niger, with reference to the construction of the new 'Trans-Sahara Highway'. Journal of Tropical Medicine & Hygiene, 84: 95-100; Julvez J, Mouchet J, Suzzoni J, Larrouy G, Fouta A, Fontenille D (1998). The anopheles of Niger. Bulletin de la Société de Pathologie Exotique, 91: 321-326",7,7.979,16.992,500,meters
,,,,,,,,,,,,,,,,,,,,,,,,,,,,,,,,,,,,,,,,20.9667,-28.7,761,meters
,,,,,,,,,,,,,,,,,,,,,,,,,,,,,,,,,,,,,,,,23.8,-30.98333,1380,meters
,,,,,,,,,,,,,,,,,,,,,,,,,,,,,,,,,,,,,,,,30.977778,-29.890556,30,meters
,,,,,,,,,,,,,,,,,,,,,,,,,,,,,,,,,,,,,,,,31.8,-26.41667,292,meters
,,,,,,,,,,,,,,,,,,,,,,,,,,,,,,,,,,,,,,,,32.25,-27.7,119,meters
,,,,,,,,,,,,,,,,,,,,,,,,,,,,,,,,,,,,,,,,33,-25.05,51,meters
,,,,,,,,,,,,,,,,,,,,,,,,,,,,,,,,,,,,,,,,14.25,-17.5,1041,meters
,,,,,,,,,,,,,,,,,,,,,,,,,,,,,,,,,,,,,,,,17,-18.8,1096,meters
,,,,,,,,,,,,,,,,,,,,,,,,,,,,,,,,,,,,,,,,21.75,-18.08333,1042,meters
,,,,,,,,,,,,,,,,,,,,,,,,,,,,,,,,,,,,,,,,22.722124,-18.875305,971,meters
,,,,,,,,,,,,,,,,,,,,,,,,,,,,,,,,,,,,,,,,26.6,-18.05,529,meters
,,,,,,,,,,,,,,,,,,,,,,,,,,,,,,,,,,,,,,,,28.8333,-16.05,388,meters
,,,,,,,,,,,,,,,,,,,,,,,,,,,,,,,,,,,,,,,,29.36667,-17.91667,893,meters
,,,,,,,,,,,,,,,,,,,,,,,,,,,,,,,,,,,,,,,,30.58333,-22.75,591,meters
,,,,,,,,,,,,,,,,,,,,,,,,,,,,,,,,,,,,,,,,31.91667,-17.33333,1126,meters
,,,,,,,,,,,,,,,,,,,,,,,,,,,,,,,,,,,,,,,,32.023894,-20.639587,520,meters
,,,,,,,,,,,,,,,,,,,,,,,,,,,,,,,,,,,,,,,,33.51667,-16.16667,176,meters
,,,,,,,,,,,,,,,,,,,,,,,,,,,,,,,,,,,,,,,,34.5,-18.96667,29,meters
,,,,,,,,,,,,,,,,,,,,,,,,,,,,,,,,,,,,,,,,35.114853,-15.065292,543,meters
,,,,,,,,,,,,,,,,,,,,,,,,,,,,,,,,,,,,,,,,36,-16.9,330,meters
,,,,,,,,,,,,,,,,,,,,,,,,,,,,,,,,,,,,,,,,38.16667,-15,677,meters
,,,,,,,,,,,,,,,,,,,,,,,,,,,,,,,,,,,,,,,,39.25,-15.96667,86,meters
,,,,,,,,,,,,,,,,,,,,,,,,,,,,,,,,,,,,,,,,43.75,-21.73333,31,meters
,,,,,,,,,,,,,,,,,,,,,,,,,,,,,,,,,,,,,,,,44.9,-17.81667,216,meters
,,,,,,,,,,,,,,,,,,,,,,,,,,,,,,,,,,,,,,,,45.45,-22.53333,822,meters
,,,,,,,,,,,,,,,,,,,,,,,,,,,,,,,,,,,,,,,,46.66667,-16.08333,15,meters
,,,,,,,,,,,,,,,,,,,,,,,,,,,,,,,,,,,,,,,,47.33333,-22.83333,144,meters
,,,,,,,,,,,,,,,,,,,,,,,,,,,,,,,,,,,,,,,,48.85,-18.91667,89,meters
,,,,,,,,,,,,,,,,,,,,,,,,,,,,,,,,,,,,,,,,49.95,-16.91667,-5,meters
,,,,,,,,,,,,,,,,,,,,,,,,,,,,,,,,,,,,,,,,57.5,-20.25,345,meters
,,,,,,,,,,,,,,,,,,,,,,,,,,,,,,,,,,,,,,,,13.35,-8.78333,12,meters
,,,,,,,,,,,,,,,,,,,,,,,,,,,,,,,,,,,,,,,,20.86667,-7.36667,681,meters
,,,,,,,,,,,,,,,,,,,,,,,,,,,,,,,,,,,,,,,,21.2,-7.48333,683,meters
,,,,,,,,,,,,,,,,,,,,,,,,,,,,,,,,,,,,,,,,28.43333,-10.55,1018,meters
,,,,,,,,,,,,,,,,,,,,,,,,,,,,,,,,,,,,,,,,33.86667,-9.58333,493,meters
,,,,,,,,,,,,,,,,,,,,,,,,,,,,,,,,,,,,,,,,34.35,-9.55,2106,meters
,,,,,,,,,,,,,,,,,,,,,,,,,,,,,,,,,,,,,,,,35.83333,-7.13333,725,meters
,,,,,,,,,,,,,,,,,,,,,,,,,,,,,,,,,,,,,,,,36.5168,-8.1001,293,meters
,,,,,,,,,,,,,,,,,,,,,,,,,,,,,,,,,,,,,,,,37.66667,-6.81667,501,meters
,,,,,,,,,,,,,,,,,,,,,,,,,,,,,,,,,,,,,,,,38.55,-5.3,295,meters
,,,,,,,,,,,,,,,,,,,,,,,,,,,,,,,,,,,,,,,,39.2,-6.16667,10,meters
,,,,,,,,,,,,,,,,,,,,,,,,,,,,,,,,,,,,,,,,40.28333,-14.21667,142,meters
,,,,,,,,,,,,,,,,,,,,,,,,,,,,,,,,,,,,,,,,43.66667,-12.3,266,meters
,,,,,,,,,,,,,,,,,,,,,,,,,,,,,,,,,,,,,,,,44.5,-12.2,108,meters
,,,,,,,,,,,,,,,,,,,,,,,,,,,,,,,,,,,,,,,,45.14743,-12.8206,176,meters
,,,,,,,,,,,,,,,,,,,,,,,,,,,,,,,,,,,,,,,,47.83333,-14.63333,50,meters
,,,,,,,,,,,,,,,,,,,,,,,,,,,,,,,,,,,,,,,,48.63333,-14.05,152,meters
,,,,,,,,,,,,,,,,,,,,,,,,,,,,,,,,,,,,,,,,49.2,-12.7,737,meters
,,,,,,,,,,,,,,,,,,,,,,,,,,,,,,,,,,,,,,,,50.280691,-14.902474,7,meters
,,,,,,,,,,,,,,,,,,,,,,,,,,,,,,,,,,,,,,,,-7.53333,4.45,20,meters
,,,,,,,,,,,,,,,,,,,,,,,,,,,,,,,,,,,,,,,,-6.13333,4.96667,42,meters
,,,,,,,,,,,,,,,,,,,,,,,,,,,,,,,,,,,,,,,,6.65,0.2,319,meters
,,,,,,,,,,,,,,,,,,,,,,,,,,,,,,,,,,,,,,,,8.36667,4.93333,16,meters
,,,,,,,,,,,,,,,,,,,,,,,,,,,,,,,,,,,,,,,,9.76791,4.04341,34,meters
,,,,,,,,,,,,,,,,,,,,,,,,,,,,,,,,,,,,,,,,10.21667,-0.68333,53,meters
,,,,,,,,,,,,,,,,,,,,,,,,,,,,,,,,,,,,,,,,11.3,4.1,541,meters
,,,,,,,,,,,,,,,,,,,,,,,,,,,,,,,,,,,,,,,,15.333333,-4.333333,280,meters
,,,,,,,,,,,,,,,,,,,,,,,,,,,,,,,,,,,,,,,,17.328288,2.709585,376,meters
,,,,,,,,,,,,,,,,,,,,,,,,,,,,,,,,,,,,,,,,18.61667,4.38333,470,meters
,,,,,,,,,,,,,,,,,,,,,,,,,,,,,,,,,,,,,,,,29.7001,0.750068,762,meters
,,,,,,,,,,,,,,,,,,,,,,,,,,,,,,,,,,,,,,,,30.18333,0.8,1619,meters
,,,,,,,,,,,,,,,,,,,,,,,,,,,,,,,,,,,,,,,,31.56667,-0.63333,1182,meters
,,,,,,,,,,,,,,,,,,,,,,,,,,,,,,,,,,,,,,,,32.83333,2.7,1018,meters
,,,,,,,,,,,,,,,,,,,,,,,,,,,,,,,,,,,,,,,,33.226,0.443001,1165,meters
,,,,,,,,,,,,,,,,,,,,,,,,,,,,,,,,,,,,,,,,34.5,0.50004,1356,meters
,,,,,,,,,,,,,,,,,,,,,,,,,,,,,,,,,,,,,,,,35.5,-1.5,1816,meters
,,,,,,,,,,,,,,,,,,,,,,,,,,,,,,,,,,,,,,,,36.099998,0.46,972,meters
,,,,,,,,,,,,,,,,,,,,,,,,,,,,,,,,,,,,,,,,37.66667,-3.38333,781,meters
,,,,,,,,,,,,,,,,,,,,,,,,,,,,,,,,,,,,,,,,38,-5,583,meters
,,,,,,,,,,,,,,,,,,,,,,,,,,,,,,,,,,,,,,,,39.63333,-1.25,149,meters
,,,,,,,,,,,,,,,,,,,,,,,,,,,,,,,,,,,,,,,,40,-3.1,36,meters
,,,,,,,,,,,,,,,,,,,,,,,,,,,,,,,,,,,,,,,,-17.45,14.69,13,meters
,,,,,,,,,,,,,,,,,,,,,,,,,,,,,,,,,,,,,,,,-15.5,13.5,5,meters
,,,,,,,,,,,,,,,,,,,,,,,,,,,,,,,,,,,,,,,,-13.33333,13.35,35,meters
,,,,,,,,,,,,,,,,,,,,,,,,,,,,,,,,,,,,,,,,-11.7,7.96667,88,meters
,,,,,,,,,,,,,,,,,,,,,,,,,,,,,,,,,,,,,,,,-9.08333,7.15,285,meters
,,,,,,,,,,,,,,,,,,,,,,,,,,,,,,,,,,,,,,,,-7.1,13.85,322,meters
,,,,,,,,,,,,,,,,,,,,,,,,,,,,,,,,,,,,,,,,-5.3,13.11667,288,meters
,,,,,,,,,,,,,,,,,,,,,,,,,,,,,,,,,,,,,,,,-3.51667,11.13333,297,meters
,,,,,,,,,,,,,,,,,,,,,,,,,,,,,,,,,,,,,,,,-1.15,13.06667,335,meters
,,,,,,,,,,,,,,,,,,,,,,,,,,,,,,,,,,,,,,,,1.9772,7.0811,163,meters
,,,,,,,,,,,,,,,,,,,,,,,,,,,,,,,,,,,,,,,,3.052227,11.859618,201,meters
,,,,,,,,,,,,,,,,,,,,,,,,,,,,,,,,,,,,,,,,5.68333,6.31667,70,meters
,,,,,,,,,,,,,,,,,,,,,,,,,,,,,,,,,,,,,,,,7.65,11.8,638,meters
,,,,,,,,,,,,,,,,,,,,,,,,,,,,,,,,,,,,,,,,9.58333,10.25,710,meters
,,,,,,,,,,,,,,,,,,,,,,,,,,,,,,,,,,,,,,,,13.4349,14.9211,345,meters
,,,,,,,,,,,,,,,,,,,,,,,,,,,,,,,,,,,,,,,,37.4389,5.51578,1204,meters
,,,,,,,,,,,,,,,,,,,,,,,,,,,,,,,,,,,,,,,,-16.5,16.01667,-3,meters
,,,,,,,,,,,,,,,,,,,,,,,,,,,,,,,,,,,,,,,,-15.03333,16.58333,7,meters
,,,,,,,,,,,,,,,,,,,,,,,,,,,,,,,,,,,,,,,,-14.23333,16.08333,40,meters
,,,,,,,,,,,,,,,,,,,,,,,,,,,,,,,,,,,,,,,,-13.1,16.25,19,meters
,,,,,,,,,,,,,,,,,,,,,,,,,,,,,,,,,,,,,,,,-10.58333,15.06667,96,meters
,,,,,,,,,,,,,,,,,,,,,,,,,,,,,,,,,,,,,,,,-9.13333,15.06667,312,meters
,,,,,,,,,,,,,,,,,,,,,,,,,,,,,,,,,,,,,,,,-3.31667,16.31667,265,meters
,,,,,,,,,,,,,,,,,,,,,,,,,,,,,,,,,,,,,,,,-2.96667,15,310,meters
,,,,,,,,,,,,,,,,,,,,,,,,,,,,,,,,,,,,,,,,-1.33333,15.8,295,meters
,,,,,,,,,,,,,,,,,,,,,,,,,,,,,,,,,,,,,,,,0.83333,19.33333,437,meters
,,,,,,,,,,,,,,,,,,,,,,,,,,,,,,,,,,,,,,,,1.33333,18.41667,496,meters